District Name,website,details,all_children,location,dates_closed – start_date,dates_closed – end_date,dates_closed – indefinitely,breakfast,lunch,dinner,meal_delivery – curbside meal pickup,meal_delivery – walk-in meal pickup,meal_delivery – pending or unspecified,meal_delivery – meal delivery,start_time_1,end_time_1,start_time_2,end_time_2,start_time_3,end_time_3,address,latitude,longitude,gmaps_name,gmaps_id
Abbott ISD,https://www.abbottisd.org/apps/news/article/1185917,,False,,2020-03-23,2020-03-27,False,False,False,False,False,False,False,False,,,,,,,"219 1st St, Abbott, TX 76621, United States",31.8830923,-97.0766524,Abbott Independent School District,43b502aa2cc3cc568a0b9471e2e5e5db1ae00b44
Abilene ISD,School Website,Details: Only children who are in the vehicle at the time of pickup will be allowed to get a meal. All children in the vehicle – whether on free-and-reduced lunch or not – will be allowed to get a meal.,True,"Martinez Elementary, Johnston Elementary, Bowie Elementary, Clark Middle School, Craig Middle School, Madison Middle School, Mann Middle School",2020-03-16,2020-03-20,False,True,True,False,True,False,False,False,7:00 AM,9:00 AM,11:00 AM,1:00 PM,,,"Abilene Independent School District, TX, USA",32.4975857,-99.745565,Abilene Independent School District,a2fbbd418bbfb939ebfcf3921246d77b8ab76d87
Academy ISD,https://www.academyisd.net/apps/news/article/1184650,,False,Academy Intermediate School  Campus,2020-03-01,2020-03-20,False,False,True,False,False,True,False,False,11:00 AM,12:30 PM,,,,,"Academy Independent School District, TX, USA",30.9752385,-97.31925419999999,Academy Independent School District,31cf6c81e61b7ff9cea36e781066b39894c25bdc
Adrian ISD,,,False,,2020-03-13,2020-03-23,False,False,False,False,False,False,False,False,,,,,,,"Adrian Independent School District, TX, USA",35.308907,-102.8975098,Adrian Independent School District,0fb62d47bc3ba2972db030624592bd6916c3ce45
Alamo Heights ISD,http://www.ahisd.net/news/what_s_new/drive-_thru_meal_service,Details:  Families should arrive at the front of the school and drive through the Meal Pick-Up line,False,Alamo Heights Junior School,2020-03-16,2020-03-20,False,True,True,False,True,False,False,False,10:00 AM,12:00 PM,8:00 AM,10:00 AM,,,"Alamo Heights Independent School District, Uptown, TX, USA",29.4901148,-98.4677851,Alamo Heights Independent School District,3e24e9cb5c1b289c1ee9aec1fb6f6c0da249fa5d
Alba-Golden ISD,https://www.agisd.com/,,False,,2020-03-16,2020-03-20,False,False,False,False,False,False,False,False,,,,,,,"Alba-Golden Independent School District, TX, USA",32.7520618,-95.5827334,Alba-Golden Independent School District,9c4265c7b5fa562a83912ae2ef70e4ba7babb61b
Aldine ISD,https://www.aldineisd.org/,,False,"Aldine High School, Blanson CTE High School, Carver High School, Davis Senior High School, Eisenhower Senior High School, MacArthur Senior High School, Nimitz Senior High School, Aldine Middle School, Garcia Middle School, Jones Middle School, Mead Middle School, Shotwell Middle School, Teague Middle School, Anderson Academy, Carroll Elementary, Ermel Elementary, Escamilla Elementary, Francis Elementary, Greenspoint Elementary, Harris Elementary, Jones Elementary and Kujawa Elementary",2020-03-16,2020-04-10,False,True,True,False,True,False,False,False,10:00 AM,1:00 PM,,,,,"Aldine Independent School District, TX, USA",29.9341866,-95.37301760000001,Aldine Independent School District,0fec5605e6d56b897b68833cf44df62ebf2579d7
Alief ISD,https://www.aliefisd.net/Page/13906,,False,"Bush Elementary School, Heflin Elementary School, Horn Elementary School, Smith Elementary School, and Alief Middle School",2020-03-16,2020-04-10,False,True,True,False,True,False,False,False,9:00 AM,,,,,,"Alief Independent School District, TX, USA",29.6947115,-95.5827334,Alief Independent School District,18ed6661e8a85ded1fc39b544717563b999df041
Allen ISD,https://www.allenisd.org/site/default.aspx?PageType=3&DomainID=1&ModuleInstanceID=5753&ViewID=6446EE88-D30C-497E-9316-3F8874B3E108&RenderLoc=0&FlexDataID=111267&PageID=1,Details: Families may remain in their cars to pick-up meals curbside at the front of designated campus sites. One meal will be provided for each Allen ISD student,False, Boyd Elementary School,2020-03-16,2020-04-03,False,True,True,False,True,False,False,False,7:30 AM,8:30 AM,11:00 AM,12:30 PM,,,"Allen Independent School District, TX, USA",33.113949,-96.6745042,Allen Independent School District,c2d361f6500c901c24983e201851f525413483b0
Alto ISD,https://www.alto.esc7.net/,Details:  To ensure adequate meal preparation,False,Elementary School Pick,2020-03-16,2020-03-20,False,True,True,False,False,True,False,False,11:30 AM,1:00 PM,,,,,"Alto Independent School District, TX, USA",31.6667328,-95.01824599999999,Alto Independent School District,976817ad095bce492fec3168d0617486d382ddd8
Alvin ISD,https://www.alvinisd.net/Domain/287,,False,"Stevenson Primary, Passmore Elementary, Manvel Jr. High, and Rodeo Palms Jr. High",2020-03-16,2020-04-10,False,False,True,False,True,False,False,False,11:00 AM,1:00 PM,,,,,"Alvin Independent School District, TX, USA",29.4498692,-95.35208759999999,Alvin Independent School District,071c43edb7671181303402cde9271251d3dc5d58
Alvin ISD,https://www.alvinisd.net/Domain/287,,False,"Stevenson Primary, Passmore Elementary, Manvel Jr. High, and Rodeo Palms Jr. High",2020-03-16,2020-04-10,False,False,True,False,True,False,False,False,11:00 AM,1:00 PM,,,,,"Alvin Independent School District, TX, USA",29.4498692,-95.35208759999999,Alvin Independent School District,071c43edb7671181303402cde9271251d3dc5d58
Alvin ISD,,,False,The Church on Masters Road,2020-03-16,2020-04-10,False,False,False,False,False,True,False,False,10:00 AM,6:00 PM,,,,,"Alvin Independent School District, TX, USA",29.4498692,-95.35208759999999,Alvin Independent School District,071c43edb7671181303402cde9271251d3dc5d58
Alvin ISD,,,False,The Church on Masters Road,2020-03-16,2020-04-10,False,False,False,False,False,True,False,False,10:00 AM,6:00 PM,,,,,"Alvin Independent School District, TX, USA",29.4498692,-95.35208759999999,Alvin Independent School District,071c43edb7671181303402cde9271251d3dc5d58
Angleton ISD,https://www.angletonisd.net/,Details: Delivery will run the process similar to Summer Fueled Program. Meals will run from,False,Where:,2020-03-16,2020-04-10,False,False,False,False,False,True,False,True,10:00 AM,2:00 PM,,,,,"Angleton Independent School District, TX, USA",29.1685304,-95.435853,Angleton Independent School District,5f63858bddd32b241482a594909accf1513e6eaa
"Anna ISD        
",,,False,,2020-03-16,2020-03-20,False,False,False,False,False,False,False,False,,,,,,,"Anna Independent School District, TX, USA",33.3349924,-96.5143087,Anna Independent School District,f921560fa318579cf2cab41f9fd2b2f7bd999a1d
Anthony ISD,https://www.anthonyisd.net/corona-virus.html,Details: The meals are available for children ages,False,MS,2020-03-23,2020-04-04,False,True,True,False,True,False,False,False,7:45 AM,9:00 AM,11:00 AM,1:00 PM,,,"Anthony Independent School District, TX 79821, USA",31.9898541,-106.5996595,Anthony Independent School District,c663d7f6b7307595fd6b296eb4315b374607107e
Anuhuac ISD,https://sites.google.com/aisdpanthers.com/anahuacisd/information-for-covid-19?authuser=0,,False,High School Cafeteria Parking lot,2020-03-16,2020-03-20,False,True,True,False,True,False,False,False,7:30 AM,9:00 AM,11:00 AM,1:00 PM,,,"Anahuac Independent School District, TX, USA",29.6629144,-94.6037231,Anahuac Independent School District,1e45b9c880f12ed77355895bde57561a20677d84
Aquilla ISD,,,False,,2020-03-01,2020-03-20,False,False,False,False,False,False,False,False,,,,,,,"Aquilla Independent School District, TX, USA",31.8548372,-97.24371049999999,Aquilla Independent School District,315c97b915cb1e0f4510011278f7057214b37bc7
Arlington ISD,"https://www.aisd.net/coronavirus/student-meal-plan-during-school-closure/
https://www.aisd.net/district-news/arlington-isd-continuing-to-feed-students/?fbclid=IwAR19c2Krj8OspT7dYXz2MkarmggqweREbKmX3jcDt2dpiBg1ZIyJZeFdsBU ",Details: Each day during the closure,False,Dipert Career,2020-03-01,2020-03-30,False,True,True,False,False,True,False,False,11:00 AM,1:00 PM,,,,,"Arlington Independent School District, TX, USA",32.71952,-97.1144039,Arlington Independent School District,58ccdf6b69e8606ee8f451ca433983134a2b9bc9
Arp ISD,http://home.arpisd.org/,,False,,2020-03-16,2020-03-20,False,False,False,False,False,False,False,False,,,,,,,"Arp Independent School District, TX, USA",32.2768345,-95.0806918,Arp Independent School District,6c94636974b4f88e1119848d6fdf5c88df689f96
Atlanta ISD,https://www.atlisd.net/125822_2?articleID=50390,,False,,2020-03-16,2020-03-20,False,False,False,False,False,False,False,False,,,,,,,"Atlanta Independent School District, TX, USA",33.0536875,-94.19234000000002,Atlanta Independent School District,12cc9d1344a4b463af2bcaf0fb407c0ab6589bc7
Austin Achieve Public Schools,"austinachieve.org
",Details: All students,False,"Austin Achieve Middle School, Austin Achieve Elementary School and Austin Achieve High School                                                                  Details",2020-03-23,2020-04-04,False,False,True,False,False,True,False,False,8:00 AM,10:00 AM,11:00 AM,1:00 PM,,,"5908 Manor Rd, Austin, TX 78723, United States",30.3073171,-97.679957,Austin Achieve Public Schools - Manor Campus,b0d578e695b1a3d56b22c382294e2258edad62e4
Austin Achieve Public Schools,"austinachieve.org
",Details: All students,False,"Austin Achieve Middle School, Austin Achieve Elementary School and Austin Achieve High School                                                                  Details",2020-03-23,2020-04-04,False,False,True,False,False,True,False,False,8:00 AM,10:00 AM,11:00 AM,1:00 PM,,,"7424 E Hwy 290, Austin, TX 78723, United States",30.3248221,-97.6781362,Austin Achieve Elementary School,51e956149ce63c6e4a0e631677086e53568aacbc
Austin ISD,https://www.austinisd.org/student-health/coronavirus/meals,Details: Each child may receive one breakfast and one lunch meal,False,"Blackshear Elementary School, Blanton Elementary School, Cook Elementary School, Dawson Elementary School, Govalle Elementary School, Houston Elementary School, Linder Elementary School, Perez Elementary School, Pleasant Hill Elementary School, T.A. Brown Elementary School, Burnet Middle School, Dobie Middle School, Akins Early College High School, Crockett Early College High School, Eastside Memorial Early College High School, LBJ Early College High School",2020-03-13,2020-04-03,False,True,True,False,True,False,False,True,11:00 AM,2:00 PM,,,,,"Austin Independent School District, TX, USA",30.22879349999999,-97.76340189999999,Austin Independent School District,c4232798ed4e0110dcb6b36fc8406331d30fe215
Avalon ISD,https://www.avalonisd.net/apps/news/article/1184733,,False,,2020-03-16,2020-03-20,False,False,False,False,False,False,False,False,,,,,,,"Avalon Independent School District, TX, USA",32.2084001,-96.7815237,Avalon Independent School District,27064f47a6d59af97f9146aa26f149334fa81d4f
Avinger ISD,https://www.avingerisd.net/,,False,,2020-03-16,2020-03-20,False,False,False,False,False,False,False,False,,,,,,,"Avinger Independent School District, TX, USA",32.9290833,-94.5418141,Avinger Independent School District,02f0bd021a074b611f2abd3d9a0e96160681cf0f
Azle ISD ,https://www.facebook.com/azleisd/?__tn__=%2Cd%2CP-R&eid=ARBupGbndqg-Oq4UoRjh4LmX4v3GBYn90iVLVRRbW1mj5xVYWE-FuiTJE2puePOYUjceGjt1ToS_gRyF ,Details:,False,"Azle High School, Eagle Heights Elementary, Pelican Bay Park",2020-03-23,2020-04-03,False,True,True,False,False,True,False,False,10:00 AM,1:00 PM,,,,,"Azle Independent School District, TX, USA",32.8737909,-97.54638849999999,Azle Independent School District,6569290df44bc8718eabda222cb879ad460190c8
Bandera ISD,https://www.banderaisd.net/apps/news/article/1184502,,False,,2020-03-16,2020-03-20,False,False,False,False,False,False,False,False,,,,,,,"Bandera Independent School District, TX, USA",29.7098738,-99.05710889999999,Bandera Independent School District,3b0592f566ba14811df091857ca6e6ce7536c9c8
Bangs ISD,https://www.bangsisd.net,,False,,2020-03-16,2020-03-20,False,False,False,False,False,False,False,False,,,,,,,"Bangs Independent School District, TX, USA",31.7999611,-99.14561529999999,Bangs Independent School District,c18f56d4b94cb4b1a04364c9ae8f1144f4982650
Barbers Hill ISD,,,False,,2020-03-01,2021-03-01,True,False,False,False,False,False,False,False,,,,,,,"Barbers Hill Independent School District, TX, USA",29.8166014,-94.8313257,Barbers Hill Independent School District,ee945ff816ca12feb673b09ee5e266a0f03f1818
Bastrop ISD,https://www.bisdtx.org/cms/lib/TX02218757/Centricity/Domain/2911/FAMILY%20-%20Closure%20Notice%203-16-20.pdf,,False,,2020-03-16,2020-04-05,False,False,False,False,False,False,True,False,,,,,,,"Bastrop Independent School District, TX, USA",30.0894033,-97.394882,Bastrop Independent School District,270fca9f1671b3669106b561d2875f6b26c3c49b
Bells ISD,https://www.bellsisd.net/,Details: Breakfast,False,"Bells Elementary, Panther Apartments on McFarland, Bells City Hall, Housing close to park on Jernigan",2020-03-16,2020-04-03,False,True,True,False,True,False,False,False,,,,,,,"Bells Independent School District, TX, USA",33.6518637,-96.429036,Bells Independent School District,df6dbab9fba167d014d3feccbe032ba29cc4213c
Belton ISD,https://www.facebook.com/BeltonISD/photos/rpp.96620621358/10157591187411359/?type=3&theater,Details:  All students,False,"Miller Heights Elementary, Joe M. Pirtle Elementary School and BISD Southwest Elementary.                                                                 Details",2020-03-16,2020-03-20,False,True,True,False,True,False,False,False,7:30 AM,9:00 AM,11:30 AM,1:00 PM,,,"Belton Independent School District, TX, USA",31.1128911,-97.5030669,Belton Independent School District,e87d45fc1135c79c9e1a351ced45e17c58199353
Belville ISD,,,False,,2020-03-16,2020-03-20,False,False,False,False,False,False,False,False,,,,,,,"Bellville Independent School District, TX, USA",29.95921139999999,-96.365157,Bellville Independent School District,f89721d8ba4604cb9ac98898f584122c9009d15b
Big Sandy ISD,http://www.bigsandyisd.org/,,False,,2020-03-16,2020-03-27,False,False,False,False,False,False,False,False,,,,,,,"Big Sandy Independent School District, TX, USA",32.6381965,-95.0806918,Big Sandy Independent School District,ab1a1bba74b0033cae467f1f4f8bd20e8f02d58a
Birdville ISD,https://www.birdvilleschools.net/covid19FreeMeals,Details:  BISD will provide pickup stations in front of the listed schools at the listed time for anyone age,False,"Birdville Elementary, Binion Elementary, West Bridville Elementary, and Watauga Elementary",2020-03-16,2020-04-03,False,False,True,False,True,False,False,False,11:00 AM,12:00 PM,,,,,"Birdville Independent School District, TX, USA",32.8468348,-97.24371049999999,Birdville Independent School District,ddeff67bb5cff0b3e9943677dd6039086e4374e1
Bishop Gorman ISD,,,False,,2020-03-16,2020-03-20,False,False,False,False,False,False,False,False,,,,,,,"503 Second St, Gorman, TX 76454, United States",32.2087649,-98.67550999999999,Gorman Independent School District,855824699e2ae475e25b0008b204c642c01bb9c4
Blanket ISD,http://www.blanketisd.net,,False,,2020-03-16,2020-03-20,False,False,False,False,False,False,False,False,,,,,,,"Blanket Independent School District, TX, USA",31.8249486,-98.7921836,Blanket Independent School District,775c2fd15b88467d1e59be0ead786617021dbaff
Bloomburg ISD,https://www.bloomburgisd.net/21165_1,,False,,2020-03-16,2020-03-20,False,False,False,False,False,False,False,False,,,,,,,"Bloomburg Independent School District, TX, USA",33.1584893,-94.0797673,Bloomburg Independent School District,88cf133e90232083a28f59ac551666e392cc353e
Blooming Grove,https://www.bgisd.org/apps/news/article/1184226,,False,,2020-03-16,2020-03-20,False,False,False,False,False,False,False,False,,,,,,,"Blooming Grove, TX 76626, USA",32.0920967,-96.715825,Blooming Grove,5f8f015d282fba1c7d07840aa95247b089dde006
Boerne ISD,https://www.boerneisd.net/,Details:  Meals will be given to children and families.,False,Boerne MS South and Curington ES.                                                                                                                                                               Details,2020-03-16,2020-03-20,False,True,True,False,True,False,False,False,7:00 AM,8:00 AM,11:00 AM,12:00 PM,,,"Boerne Independent School District, TX, USA",29.8255265,-98.70407499999999,Boerne Independent School District,90c0a9f1cbdc3a7c188421ba1d6b48bc8e5092a4
Bosqueville ISD,,,False,,2020-03-16,2020-03-20,False,False,False,False,False,False,False,False,,,,,,,"Bosqueville Independent School District, TX 76708, USA",31.6185967,-97.2113605,Bosqueville Independent School District,edbe7c699b6348d9e734584eefc7b590c78ee08b
Bonham ISD,,,False,Bonham High School,2020-03-16,2020-04-03,False,False,True,False,False,False,True,False,11:00 AM,1:00 PM,,,,,"Bonham Independent School District, TX, USA",33.5310615,-96.17391160000001,Bonham Independent School District,d587c645c5149266009dec79f1e05608643a0d11
Brackett ISD,,Details: Lunch will be served on a to-go basis for students and families to pick up at Cafeteria.,False,Cafeteria,2020-03-16,2020-03-20,False,False,True,False,False,True,False,False,11:00 AM,1:00 PM,,,,,"Brackett Independent School District, TX, USA",29.2934865,-100.3497895,Brackett Independent School District,d8a5789850132488e7a2b8aafa38cf18608b30c9
Brady ISD,https://www.bradyisd.org,,False,,2020-03-16,2020-03-20,False,False,False,False,False,False,False,False,,,,,,,"Brady Independent School District, TX, USA",31.1399501,-99.5006143,Brady Independent School District,6e429a5cb6b794f85718bc08c658020ad3f34202
Brazos ISD,,,False,High School cafeteria pakring lot,2020-03-16,2020-04-03,False,False,False,False,True,False,False,False,11:30 AM,1:00 PM,,,,,"Brazos Independent School District, TX, USA",29.5839209,-96.0044121,Brazos Independent School District,205a222b2d1ea397419f31491da61ad39d533c20
Brazosport ISD,https://www.brazosportisd.net/news/what_s_new/b_i_s_d_provides_free_meals_for_anyone_18___under,,False,"TW Ogg Elementary, Velasco Elementary, Ney Elementary",2020-03-16,2020-04-10,False,True,True,False,True,False,False,False,,,,,,,"Brazosport Independent School District, TX, USA",28.962247,-95.37301760000001,Brazosport Independent School District,af3cb6da5d56c1db0cd18d493defc8526af5a70c
Bremond IS,https://www.bremondisd.net/,,False,,2020-03-16,2020-03-20,False,False,False,False,False,False,False,False,,,,,,,"Bremond, TX 76629, USA",31.16518169999999,-96.6769217,Bremond,bec3ac11b19901967e1ae79cf5aa1826f2895e6a
Brenham ISD,,,False,Where:,2020-03-16,2020-04-03,False,True,True,False,True,False,False,False,,,,,,,"Brenham Independent School District, TX, USA",30.2352956,-96.365157,Brenham Independent School District,1f70f4c667983a68c3f4a913801a0a4c3378d5c0
Broaddus ISD,https://www.broaddusisd.com/article/209057?org=district,,False,,2020-03-16,2020-03-20,False,False,False,False,False,False,False,False,,,,,,,"Broaddus Independent School District, TX, USA",31.2402944,-94.19234000000002,Broaddus Independent School District,518c8c521ce705f2f75aaa4d3a8f6cba8b751520
Brookesmith ISD,https://www.brookesmithisd.net,,False,,2020-03-16,2020-03-20,False,False,False,False,False,False,False,False,,,,,,,"13400 Farm to Market Road 586 E, Brookesmith, TX 76827, United States",31.5476073,-99.1197258,Brookesmith Isd,bdcf2599278ce32e472f4e94b943db01fcb36ad0
Brooks County ISD,https://irp-cdn.multiscreensite.com/8be43fb4/files/uploaded/Brooks%20County%20ISD%20Offers%20FREE%20Curbside%20Meals%20to%20Children%2018%20and%20younger%20message.pdf,Details: To ensure we have accurate numbers of meals needed,False,Falfurrias Junior High Campus,2020-03-16,2020-03-20,False,True,True,False,True,False,False,False,9:30 AM,1:00 PM,8:00 AM,8:00 PM,,,"Brooks County Independent School District, TX, USA",27.0273057,-98.2212979,Brooks County Independent School District,040d0ddcff3be3a2bccb5fe6e023f38b023cfef3
Brownsboro ISD,,,False,,2020-03-16,2020-03-20,False,False,False,False,False,False,False,False,,,,,,,"Brownsboro Independent School District, TX, USA",32.2556841,-95.5827334,Brownsboro Independent School District,36382130353201e7074136515213589ed6b51afd
Brownsville ISD,,,False,,2020-03-16,2020-03-20,False,False,False,False,False,False,False,False,,,,,,,Brownsville Independent School District,25.9203424,-97.4597725,Brownsville Independent School District,214150efcd3126e38f780541e2fffdee424f2bec
Brownwood ISD,https://www.brownwoodisd.org/covid19,,False,,2020-03-16,2020-03-20,False,False,False,False,False,False,False,False,,,,,,,"2707 Southside Dr, Brownwood, TX 76801, United States",31.69100929999999,-98.9728777,Brownwood Independent School District,9d08fa6aea9a312114e9ec986e644bb142a9bba8
Bruceville- Eddy ISD,,,False,,2020-03-16,2020-03-20,False,False,False,False,False,False,False,False,,,,,,,"Bruceville-Eddy Independent School District, TX, USA",31.3099419,-97.24371049999999,Bruceville-Eddy Independent School District,567f508ea22d643f14a906928ee13d44b37fb682
Big Springs Charter School System / Brune ,https://www.facebook.com/247033878668322/photos/pcb.3100481409990207/3100480443323637/?type=3&theater,,False,,2020-03-16,2020-03-20,False,False,False,False,False,False,True,False,,,,,,,,,,,
Bryan ISD,https://www.bryanisd.org/apps/pages/index.jsp?uREC_ID=1694662&type=d&pREC_ID=1853658,Details:,False,"Bryan High School, Long Intermediate, Jones Elementary, and Kemp",2020-03-16,2020-04-10,False,False,True,False,True,False,False,False,11:00 AM,1:00 PM,,,,,"801 S Ennis St, Bryan, TX 77803, United States",30.66292799999999,-96.36754289999999,Bryan Independent School District,8e983f14b78347e9d8fa17bdd94f22fc1756e13c
Bryan ISD,https://www.bryanisd.org/apps/pages/index.jsp?uREC_ID=1694662&type=d&pREC_ID=1853658,Details:,False,"Bryan High School, Long Intermediate, Jones Elementary, and Kemp",2020-03-16,2020-04-10,False,False,True,False,True,False,False,False,11:00 AM,1:00 PM,,,,,"800 Texas Ave, Bryan, TX 77803, United States",30.6668329,-96.3716079,Bryan ISD Technology Support Center,5ec1ae18b3667bcc184202f473f944265f26eb5f
Bryan ISD,https://www.bryanisd.org/apps/pages/index.jsp?uREC_ID=1694662&type=d&pREC_ID=1853658,Details:,False,"Bryan High School, Long Intermediate, Jones Elementary, and Kemp",2020-03-16,2020-04-10,False,False,True,False,True,False,False,False,11:00 AM,1:00 PM,,,,,"3225 McHaney Dr, Bryan, TX 77803, United States",30.7059357,-96.3739277,Bryan I.S.D. Transportation,e6a66aeb05e0abf09e90c596c603e15e4fa0575f
Buffalo ISD,http://www.buffaloisd.net/,,False,West Patio at Buffalo Lower Junior High,2020-03-16,2020-03-20,False,True,True,False,True,False,False,False,7:30 AM,8:30 AM,11:30 AM,1:00 PM,,,"Buffalo Independent School District, TX, USA",31.51050249999999,-96.0044121,Buffalo Independent School District,f9e67f42aa781a2f2cf51ffd6468b7b185f4beca
Bullard ISD,https://www.bullardisd.net/,,False,,2020-03-16,2020-03-20,False,False,False,False,False,False,False,False,,,,,,,"Bullard Independent School District, TX, USA",32.1289598,-95.37301760000001,Bullard Independent School District,ab13ed4b933a1772a7ecc3da231f6a073272e2ce
Burleson ISD,http://bit.ly/burlesonisdhealthupdate.,Details:  Burleson ISD will provide free,False,"Brock, Taylor, and Norwood",2020-03-23,2020-04-03,False,True,True,False,True,False,False,False,10:00 AM,2:00 PM,,,,,"Burleson Independent School District, TX, USA",32.5297156,-97.286868,Burleson Independent School District,e9a9ee945b3dc345a8e8a1a3a73b440a4245d268
Burnet CISD,https://www.burnetcisd.net/apps/news/article/1190129,,False,,2020-03-23,2020-04-03,False,False,False,False,False,False,True,False,,,,,,,"Burnet Consolidated Independent School District, TX, USA",30.8667225,-98.1775638,Burnet Consolidated Independent School District,dd238139f61eb04262519a206539d8d5e487efc3
Caddo Mills ISD,,,False,,2020-03-16,2020-03-20,False,False,False,False,False,False,False,False,,,,,,,"100 Fox Ln, Caddo Mills, TX 75135, United States",33.0777989,-96.2274925,Caddo Mills Independent School District,027ace827301ceb596f016e63c02ddc7eea42951
Calvert ISD,http://www.calvertisd.com/,,False,Highschool Cafeteria,2020-03-16,2020-03-20,False,True,True,False,False,True,False,False,10:00 AM,12:00 PM,,,,,"Calvert Independent School District, TX, USA",30.9753601,-96.6851982,Calvert Independent School District,80a3c81a9eb0628fc3fa5f7b58a72d97706d476f
Cameron ISD,,,False,,2020-03-16,2020-03-20,False,False,False,False,False,False,False,False,,,,,,,"Cameron Independent School District, TX, USA",30.8464252,-96.9638624,Cameron Independent School District,eba7a3eef5b56b420d8d2d7b07049a9501623311
Canutillo ISD,http://www.canutillo-isd.org/COVID19 ,Details: Canutillo ISD will serve free breakfast and lunch for any child ages,False,"Canutillo High School, Bill Childress Elementary, Garcia Elementary, Canutillo Elementary",2020-03-23,2020-04-04,False,True,True,False,False,True,False,False,7:00 AM,9:00 AM,11:00 AM,1:00 PM,,,"Canutillo Independent School District, TX, USA",31.912447,-106.5584071,Canutillo Independent School District,6a81d8baf804b796ca25268644542978c28441f4
Carlisle ISD,https://www.carlisleisd.org/,,False,,2020-03-16,2020-03-20,False,False,False,False,False,False,False,False,,,,,,,"Carlisle Independent School District, TX, USA",32.0552871,-94.9558696,Carlisle Independent School District,139ba7688516e9f5db5c34fd95398276ea64630c
Carroll ISD,https://www.southlakecarroll.edu/Page/3170,Details: Carroll ISD students enrolled in the Free,False,,2020-03-16,2020-04-03,False,False,True,False,False,True,False,True,11:00 AM,12:30 PM,,,,,"Carroll Independent School District, TX, USA",32.9533477,-97.1467072,Carroll Independent School District,a42d5fae79ae04fb7dc229e180e99c1c36b247f7
Carrollton-Farmers Branch ISD,https://cfbisd.edu/covid19/grab-go-meals/,Details:  Free meals will be provided for any CFBISD student. Please be prepared to provide your student,False,"Creekview, Newman Smith, Ranchview and Turner High Schools.",2020-03-16,2020-04-03,False,False,True,False,False,True,False,False,11:00 AM,12:30 PM,,,,,"Carrollton-Farmers Branch Independent School District, TX, USA",32.9560405,-96.89944949999999,Carrollton-Farmers Branch Independent School District,f5d7ef8f8dcb96c5e0c1864005fe7e01cad9e261
Castleberry ISD,,,False,,2020-03-16,2020-04-06,False,False,False,False,False,False,False,False,,,,,,,"Castleberry Independent School District, TX, USA",32.7759515,-97.4002872,Castleberry Independent School District,d609b74463ad4d1944272c9ba336c557af5dd714
Cedar Hill ISD,,Details:  Grab and Go Meals are for anyone under the age of,False,Plummer Elementary,2020-03-16,2020-03-20,False,True,True,False,False,True,False,False,7:30 AM,8:30 AM,11:00 AM,1:00 PM,,,"Cedar Hill Independent School District, TX, USA",32.5918484,-96.9853474,Cedar Hill Independent School District,30e62abe6e75965695eb0145067f1bc53d25f2e9
Celina ISD,,,False,,2020-03-16,2020-03-20,False,False,False,False,False,False,False,False,,,,,,,"Celina Independent School District, TX, USA",33.3212791,-96.7708138,Celina Independent School District,525d8e05edec31e7902e8da7b406de271d73762b
Centerville ISD,https://www.centerville.k12.tx.us/264221_2,,False,,2020-03-16,2020-03-20,False,False,False,False,False,False,False,False,,,,,,,"813 S Commerce St, Centerville, TX 75833, United States",31.2518419,-95.9808178,Centerville ISD,ea5f5fe393d5534e999e0c52055216c7b292ab74
Central Heights ISD,https://www.centralhts.org/,,False,,2020-03-16,2020-03-20,False,False,False,False,False,False,False,False,,,,,,,"Nacogdoches, TX 75964, United States",31.7065478,-94.6783391,Central Heights School District,8babd8d3472a85aa641d73d6fe3fc338c0216b41
Channelview ISD,https://www.cvisd.org/site/default.aspx?PageType=3&DomainID=4&ModuleInstanceID=148&ViewID=6446EE88-D30C-497E-9316-3F8874B3E108&RenderLoc=0&FlexDataID=23309&PageID=1,Details: Children will now receive two breakfasts and two lunches at each pick up,False, Early Childhood Center,2020-03-16,2020-04-10,False,True,True,False,True,False,False,False,10:00 AM,1:00 PM,,,,,"Channelview Independent School District, TX, USA",29.7945258,-95.11194069999999,Channelview Independent School District,d597d9bbd40162d0c674e5f32f379d1cc7b026fc
Chappel Hill ISD,,,False,,2020-03-16,2020-03-20,False,False,False,False,False,False,False,False,,,,,,,"Chapel Hill Independent School District, TX, USA",32.3656095,-95.1223608,Chapel Hill Independent School District,18ddcbdd2c696faf4fbe47d0d1673e32bfa585c0
Charlotte ISD,http://www.charlotteisd.net/,Details: The child must be present to receive the meal but an ID number is not required.,False,High School Cafeteria Gate,2020-03-16,2020-03-20,False,False,False,False,False,True,False,False,9:00 AM,12:00 PM,,,,,"Charlotte Independent School District, TX, USA",28.8331066,-98.7260927,Charlotte Independent School District,30a14b1457e58c722c28133f0c1b30ba92da365b
Chilton ISD,https://www.chiltonisd.org/article/209605?org=chilton-isd&fbclid=IwAR0e7qduFWUiXRvx86nmNuUV182G7LCCcdUoMLo3aGUxufxtnhZGjbVaNrk,Details: All meals will be packaged to go in the district cafeteria.  Please understand that all individuals entering the building to pick up breakfast and,False,District Cafeteria,2020-03-16,2020-03-20,False,True,True,False,False,True,False,False,7:30 AM,8:30 AM,11:30 AM,12:30 PM,,,"905 Durango St, Chilton, TX 76632, United States",31.2853944,-97.0633124,Chilton High School,e0be8ede12e1c8a06da2b426e6837042f6130926
China Spring ISD,,,False,,2020-03-16,2020-03-20,False,False,False,False,False,False,False,False,,,,,,,"China Spring Independent School District, TX, USA",31.668561,-97.33005299999999,China Spring Independent School District,dbe8cadfd65d19bd144fd30cd7dd4affd91b05ad
Chisum ISD,https://chisumisd.org/,Details:  Any student,False,Chisum Elementary and Roxton City Hall,2020-03-16,2020-03-20,False,True,True,False,False,True,False,False,7:30 AM,9:30 AM,9:00 AM,11:00 AM,,,"Chisum Independent School District, TX, USA",33.5125356,-95.62476699999999,Chisum Independent School District,0c8ab74f98fbc2f8c98f095ac9c6fb0b00bf759d
Christoval ISD,https://christovalisd.org,,False,,2020-03-16,2020-03-20,False,False,False,False,False,False,False,False,,,,,,,"20065 3rd St, Christoval, TX 76935, United States",31.19041989999999,-100.4965048,Christoval ISD,6b54e8aeaf58107c594f2472ed1660c9b269f0f5
Clarksville ISD,https://www.clarksvilleisd.net/,,False,,2020-03-16,2020-03-20,False,False,False,False,False,False,False,False,,,,,,,"Clarksville Independent School District, TX, USA",33.6086007,-95.0577082,Clarksville Independent School District,3f38dd00c926d450b7b377ebc852fe04d8fc313f
Clear Creek ISD,https://www.ccisd.net/news/2019-20_district_news/drive_through_meals_for_students,Details: Monday,False,"Greene Elementary, League City Elementary, McWhirter Elementary, Stewart Elementary,",2020-03-16,2020-04-10,False,True,True,False,True,False,False,False,11:00 AM,1:00 PM,,,,,"Clear Creek Independent School District, TX, USA",29.55224329999999,-95.1015225,Clear Creek Independent School District,7ea4434866d7250884d51fa58c35de20211a3fae
Cleburne ISD,,Details:  Families must make reservations for the lunch service by,False,C.C.Cooke Elementary School,2020-03-23,2020-03-27,False,True,True,False,False,True,False,False,7:00 AM,8:30 AM,11:00 AM,1:00 PM,,,"Cleburne Independent School District, TX, USA",32.3393952,-97.4597725,Cleburne Independent School District,beded10b252cd510d08553ee80370edd0a676790
Cleveland ISD,https://www.clevelandisd.org/,Details:  Enter thru the back drive,False,Cleveland Middle School and Montebello Park,2020-03-16,2020-04-10,False,True,True,False,True,False,False,False,9:00 AM,11:00 AM,,,,,"316 E Dallas St, Cleveland, TX 77327, United States",30.3381718,-95.0876727,Cleveland Independent School District,81fa81a74b805277d8bfb0a143748f34a55e55c3
Cleveland ISD,https://www.clevelandisd.org/,Details:  Enter thru the back drive,False,Cleveland Middle School and Montebello Park,2020-03-16,2020-04-10,False,True,True,False,True,False,False,False,9:00 AM,11:00 AM,,,,,"1600 Houston St, Cleveland, TX 77327, United States",30.3380696,-95.0689087,Cleveland High School,9458ff888afdd9558685fa09cfa58e7829dc30e1
Clifton ISD,,,False,,2020-03-16,2020-03-20,False,False,False,False,False,False,False,False,,,,,,,"Clifton Independent School District, TX, USA",31.8132966,-97.56805949999999,Clifton Independent School District,574c22e331bb28beb302174d5df406697e90c59f
Clint ISD,https://www.clintweb.net/site/default.aspx?PageType=3&DomainID=4&ModuleInstanceID=40&ViewID=6446EE88-D30C-497E-9316-3F8874B3E108&RenderLoc=0&FlexDataID=11352&PageID=1,,False,,2020-03-23,2020-04-04,False,False,False,False,False,False,False,False,,,,,,,"Clint Independent School District, TX, USA",31.8161947,-106.1110501,Clint Independent School District,0fb3b38e158bccf549277bcb6ce9dad6cdb63e56
Coleman ISD,https://www.colemanisd.net,Details:  Call on,False,Softball Field,2020-03-16,2020-03-20,False,True,True,False,False,False,False,False,7:30 AM,8:30 AM,11:30 AM,12:30 PM,,,"Coleman Independent School District, TX, USA",31.9675683,-99.32292129999999,Coleman Independent School District,5c338b69dd20864ba99d04a1e84cb0d566823200
College Station ISD,https://www.facebook.com/csisd/,Details: Students who pick up a lunch will also receive a breakfast in a bag for the following day.,False,"South Knoll, College Hills, Southwood Valley, River Bend and Oakwood",2020-03-16,2020-04-10,False,False,True,False,False,True,False,False,11:00 AM,1:00 PM,,,,,"College Station Independent School District, TX, USA",30.5368372,-96.30134319999999,College Station Independent School District,e969af28758ae09fd91f221cf03ab653e359e1a7
Columbia-Brazoria ISD,,,False,,2020-03-16,2020-03-20,False,False,False,False,False,False,True,False,,,,,,,"Columbia-Brazoria Independent School District, TX, USA",29.1375645,-95.62476699999999,Columbia-Brazoria Independent School District,e2b40c6aaac6badae8081afaea3acf6423aa71d8
Como ISD,https://www.cpcisd.net/article/210394?org=cp-cisd,,False,,2020-03-16,2020-03-20,False,False,False,False,False,False,True,False,,,,,,,"Como-Pickton Consolidated Independent School District, TX, USA",33.0291889,-95.4149003,Como-Pickton Consolidated Independent School District,0a15328627de82ec2ce49b878a75cdfee19af345
Connally ISD,https://www.connally.org/,Details: One meal per child and CHILD MUST BE PRESENT to receive a meal,False,Connally Elementary School,2020-03-13,2020-03-27,False,True,True,False,True,False,False,False,8:00 AM,9:00 AM,11:00 AM,12:30 PM,,,"Connally Independent School District, TX, USA",31.6461341,-97.12516989999999,Connally Independent School District,f23961d062c61e51c72419b44cdc630626a8b932
Conroe ISD,https://www.conroeisd.net/alert/conroe-isd-closed-march-16-20/,,False,"Austin Elementary, Caney Creek High School, Conroe High School, Grand Oaks High School, Hauke High School, Knox Junior High, Oak Ridge High School, The Woodlands College Park High School, The Woodlands High School, and Washington Junior High.",2020-03-16,2020-04-10,False,False,True,False,True,False,False,False,10:00 AM,1:00 PM,,,,,"Conroe Independent School District, TX, USA",30.2770972,-95.435853,Conroe Independent School District,577038ed671ac97362a4a99c41fbbfe563460310
Cooper ISD,https://www.cooperisd.net/,,False,,2020-03-16,2020-03-20,False,False,False,False,False,False,False,False,,,,,,,"Cooper Independent School District, TX, USA",33.3765235,-95.6668306,Cooper Independent School District,dc821742b1b8b8db49eac0b20f3cdece2b397912
Coppell ISD,https://www.coppellisd.com/site/default.aspx?PageType=3&ModuleInstanceID=18787&ViewID=7b97f7ed-8e5e-4120-848f-a8b4987d588f&RenderLoc=0&FlexDataID=33998&PageID=1&fbclid=IwAR0QE4nA_xZ7SqIj2qyVvIaAZFEhcOGAauXKWoEAGIy_VDZkK8_I75QvuiA,Details: Students aged,False,"Austin Elementary, Town Center Elementary, Valley Ranch Elementary and Wilson Elementary",2020-03-16,2020-03-20,False,False,True,False,True,False,False,False,11:00 AM,12:00 PM,,,,,"Coppell Independent School District, TX, USA",32.9512665,-96.9853474,Coppell Independent School District,e37766abc3d35694158e4cd4780cfd6c7939f6a5
Copperas Cove ISD,,,False,,2020-03-16,2020-03-20,False,False,False,False,False,False,False,False,,,,,,,"Copperas Cove Independent School District, TX, USA",31.1779101,-97.9374948,Copperas Cove Independent School District,5397f7074c90d1ac1f26d6bd9736482e87a2d89f
Corsicana ISD,https://www.cisd.org/site/default.aspx?PageType=3&ModuleInstanceID=20698&ViewID=7b97f7ed-8e5e-4120-848f-a8b4987d588f&RenderLoc=0&FlexDataID=39320&PageID=14204,Details:  Food distribution locations have been established to serve breakfast and lunch to all Corsicana Independent School District,False,"Corsicana High School, Collins Intermediate, Sam Houston, Bowie, Fannin, Navarro, Carroll, and Travis location. In addition, buses will arrive at St. John",2020-03-16,2020-04-03,False,True,True,False,True,False,False,False,10:00 AM,12:00 PM,,,,,"Corsicana Independent School District, TX, USA",32.0323863,-96.47165799999999,Corsicana Independent School District,9dbd78a5bd1c4b68ab478bf0e7621ec4a0c7548c
Crockett ISD,https://www.crockettisd.net/,,False,,2020-03-16,2020-03-20,False,False,False,False,False,False,False,False,,,,,,,"Crockett Independent School District, TX, USA",31.3071007,-95.4568133,Crockett Independent School District,300b5e4dcd5614936630142cefc0410f280b94c4
Crockett County CCSD,http://www.ozonaschools.net,,False,,2020-03-16,2020-03-17,False,False,False,False,False,False,False,False,,,,,,,"601 Ave D, Ozona, TX 76943, United States",30.7140194,-101.2006451,Crockett County Ccsd,cee252ca4e6fc177dbd52237a96dec7723ebc916
Crockett County CCSD,http://www.ozonaschools.net,,False,,2020-03-16,2020-03-17,False,False,False,False,False,False,False,False,,,,,,,"105 Ave H, Ozona, TX 76943, United States",30.7162664,-101.2061387,Crockett County ISD,9987d4face25800dd00a4f13d7701ea72fca0e69
Crockett County CCSD,http://www.ozonaschools.net,,False,,2020-03-16,2020-03-17,False,False,False,False,False,False,False,False,,,,,,,"804 14th St, Ozona, TX 76943, United States",30.7064788,-101.2008951,Crockett County Cons Common,5d3f09926d4f108a460ba9e15425316439088faa
Crosby ISD,,Details: a weeks worth of food will be provided on pick up. Children must be in vehicle.,False,Drew Elementary,2020-03-16,2020-04-10,False,False,False,False,True,False,False,False,,,,,,,"Crosby Independent School District, TX, USA",29.9012013,-95.0390536,Crosby Independent School District,046e092d8ea9fa298068a00a1936b51a672613ac
Crowley ISD,https://www.crowleyisdtx.org/covid19?fbclid=IwAR0-i1a9pZ_JURfBIrZ0W3yxjJ0T9opR4p5VU_jXQg68mAHdk-bHESfCy_c,Details: All children,True,Student,2020-03-16,2020-03-27,False,False,False,False,False,True,False,False,7:30 AM,9:00 AM,11:00 AM,1:00 PM,4:30 PM,6:00 PM,"Crowley Independent School District, TX, USA",32.6015049,-97.4056928,Crowley Independent School District,9609f120b7e789d7f358ddc6fad7a528f923c4f8
Crystal City ISD,https://www.crystalcityisd.org/apps/news/article/1185413,,False,Student,2020-03-16,2020-03-20,False,False,False,False,False,True,False,False,7:30 AM,8:30 AM,11:30 AM,1:00 PM,,,"Crystal City Independent School District, TX, USA",28.7384206,-99.7678687,Crystal City Independent School District,45cd212d9ab9337cf350a2e2b1dd221867c3cece
Cumberland Academy ,http://www.cumberlandacademy.com/,,False,,2020-03-16,2020-03-20,False,False,False,False,False,False,False,False,,,,,,,"1340 Shiloh Rd, Tyler, TX 75703, United States",32.2960767,-95.28678110000001,Cumberland Academy,d11813f5edccc5ac2a67dd55c748eb8d6eb5c258
Cumby ISD,https://www.cumbyisd.net/218663_2?articleID=50351,,False,,2020-03-16,2020-03-20,False,False,False,False,False,False,False,False,,,,,,,"Cumby Independent School District, TX, USA",33.1448414,-95.8353837,Cumby Independent School District,6e4e0358e85de75bc2ef8b43028367866abe3541
Cushing ISD,https://www.cushingisd.org/,,False,,2020-03-16,2020-03-20,False,False,False,False,False,False,False,False,,,,,,,"1088 Bearkat Dr, Cushing, TX 75760, United States",31.8193741,-94.8368476,Cushing Independent School District,35542409f8ea16d493d2f458124edaff131617c7
Cypress-Fairbanks ISD,https://cfisd-superintendent.blogspot.com/2020/03/covid-19-update-031320.html?fbclid=IwAR0VRWAQNPTvcpNiY2PGHfhHqpZVgS6Jt2uoWM4Q5nBQOE-tUH5ue8X36LU,Details:  Goodson MS will be added Tuesday,False,"Arnold MS, Bane ES, Cy Creek HS, Cy Lakes",2020-03-13,2020-04-09,False,True,True,False,True,False,False,False,,,,,,,"Cypress-Fairbanks Independent School District, TX, USA",29.8979465,-95.68787359999999,Cypress-Fairbanks Independent School District,c274b8a60215adba7575a84152fff28683f44731
Daingerfield-Lonestar ISD,https://www.dlsisd.org/apps/news/article/1184745,,False,,2020-03-16,2020-03-20,False,False,False,False,False,False,False,False,,,,,,,"Daingerfield-Lone Star Independent School District, TX, USA",33.0330265,-94.7691586,Daingerfield-Lone Star Independent School District,f4db37dc99cb483726ed9bc027cbcad74e08b552
Dallas ISD,https://www.dallasisd.org/Page/52614,Details:  We serve meal to Dallas ISD students through the age of,False,"William A. Blair Elementary, Felix Botello Elementary, Nancy Cochran Elementary, Billy Earl Dade Middle School, Charles A. Gill Elementary, Lenore Kirk Hall Elementary, Harold Lang Middle School, Umphrey Lee Elementary, Lincoln High School, L.G. Pinkston High School, K.B. Polk Elementary, Rosemont Upper, Julian Saldivar Elementary, Seagoville North Elementary, Sam Tasby Middle School, Thomas C. Marsh Preparatory Academy, Wilmer",2020-03-01,2021-03-01,True,False,True,False,False,True,False,False,9:00 AM,9:30 AM,12:30 AM,1:00 PM,,,"Dallas Independent School District, TX, USA",32.783495,-96.7708138,Dallas Independent School District,c8cc6bb6898542ee1f15db2be2464aff546b4cf7
Damon ISD,,,False,,2020-03-16,2020-03-20,False,False,False,False,False,False,False,False,,,,,,,"1211 County Rd 264, Damon, TX 77430, United States",29.2894041,-95.7409407,Damon Independent School District,3c4ae40d8ba0e313ddbcafb640545efc9df8bb14
Danbury ISD,,,True,,2020-03-16,2020-03-20,False,False,False,False,False,False,False,False,,,,,,,"Danbury Independent School District, TX, USA",29.2302676,-95.34162549999999,Danbury Independent School District,bf284d13c42b0626091348ab2e746e37d6cae85a
Dawson ISD,https://www.dawsonisd.net/apps/news/article/1182738,,False,,2020-03-16,2020-03-20,False,False,False,False,False,False,False,False,,,,,,,"Dawson Independent School District, TX, USA",32.8917862,-102.1175404,Dawson Independent School District,479d1a0eb432daf5e05c9d923b3ed88fa27e2371
Dayton ISD,https://s3.amazonaws.com/scschoolfiles/552/grab_and_go_meals_engspan.pdf,Details:  Parents,False,Dr. E. R. Richter Elementary School,2020-03-16,2020-03-20,False,True,True,False,True,False,False,False,9:30 AM,12:30 PM,,,,,"Dayton Independent School District, TX, USA",30.0204656,-94.9350929,Dayton Independent School District,f6489e4f2d1659308816c59fb17a0997366d86eb
Deer Park ISD,https://www.facebook.com/dpisd,,False,Where:,2020-03-16,2020-04-10,False,True,True,False,True,False,False,False,,,,,,,"Deer Park Independent School District, TX, USA",29.7260316,-95.09110620000001,Deer Park Independent School District,77f7e5a0d09b11904881a88c3e5942b7632c183f
Del Valle ISD,https://www.dvisd.net/coronavirus/,,False,,2020-03-23,2020-04-05,False,False,False,False,False,False,True,False,,,,,,,"Del Valle Independent School District, TX, USA",30.1663503,-97.654811,Del Valle Independent School District,bad5d48cd8af33f0b372d4e86ce09851ded1b16e
Denison ISD,https://www.denisonisd.net/covid-19,Details:  All Denison ISD students are welcome to participate in this free breakfast and lunch program.,False,Scott Middle School,2020-03-16,2020-04-03,False,True,True,False,False,True,False,False,7:30 AM,9:30 AM,11:00 AM,1:30 PM,,,"Denison Independent School District, TX, USA",33.7787175,-96.55698819999999,Denison Independent School District,7b633b53e21156ab5336706afb493f4ae84e8eb4
Denton ISD,https://www.dentonisd.org/meals?fbclid=IwAR1l6BA7KVphKcvTcy38Qv1PwslqIHwjiFvfTb8ZMQyp48ixxPsLojWOEQI,Details:  Any student is eligible for service and a student ID is not required. Please use the caferteria entrance at each campus. All other entrances will be closed. The meals will be served,False,"Bell Elementary, Alexander Elementary, Nelson Elementary, Ginnings Elementary, Cross Oaks Elementary, Evers Park Elementary, Harpool Middle School, Rivera Elementary, Navo Middle School, Borman Elementary, Hodge Elementary, Calhoun Middle School, Pecan Creek Elementary, McMath Middle School, Myers Middle School",2020-03-16,2020-04-03,False,True,True,False,False,True,False,False,8:00 AM,9:00 AM,12:00 PM,1:00 PM,,,"Denton Independent School District, TX, USA",33.21513,-97.0713572,Denton Independent School District,f5086f44e662f0bb156fb0c9b54503ad867e55e0
DeSoto ISD,"www.DeSotoISD.org/Coronavirus.
https://www.dentonisd.org/meals?fbclid=IwAR1l6BA7KVphKcvTcy38Qv1PwslqIHwjiFvfTb8ZMQyp48ixxPsLojWOEQI",Details:  The packaged meals will be distributed from,False,"The Meadows Elementary, Frank D. Moates Elementary, DeSoto High School",2020-03-01,2021-03-01,True,True,True,False,True,False,False,False,9:00 AM,1:00 PM,,,,,"DeSoto Independent School District, TX, USA",32.5871053,-96.8672668,DeSoto Independent School District,ddad12b9ccd2064f0c9a63832a340b88dfc4c104
Detriot ISD,https://www.detroiteagles.net/17495?articleID=50285,,False,,2020-03-16,2020-03-20,False,False,False,False,False,False,False,False,,,,,,,"101 Garner Dr, Detroit, TX 75436, United States",33.6692144,-95.2684673,Detroit High School,bfafbc648f9e4bc0adc646f4e7786f63ac9cfbc6
D'Hanis ISD,,Details: This service will be a,False,Cafeteria,2020-03-16,2020-03-20,False,False,False,False,False,True,False,False,7:30 AM,8:30 AM,11:00 AM,12:00 PM,,,"D'Hanis Independent School District, TX, USA",29.3234881,-99.32292129999999,D'Hanis Independent School District,af8cf158aa2bf50875b5b57c28f373fd880cf1f0
Diboll ISD,http://www.dibollisd.com/apps/news/article/1185759,Details:  Anyone,False,Where:,2020-03-16,2020-03-20,False,True,True,False,True,False,False,False,,,,,,,"Diboll Independent School District, TX, USA",31.1524625,-94.7484518,Diboll Independent School District,ab9ade5894902978d9bfb532a7d3353992fccd86
Dickinson ISD,https://www.facebook.com/dickinsonschools,Details:  Meals set up in the drop-off,False,Dickinson High School,2020-03-16,2020-04-10,False,True,True,False,True,False,False,False,11:00 AM,12:00 PM,,,,,"Dickinson Independent School District, TX, USA",29.4404707,-94.99744609999999,Dickinson Independent School District,44caece7f71a225c3d01df241ebd656d4790ed0b
Douglas ISD,https://www.douglassisd.com/,,False,,2020-03-16,2020-03-20,False,False,False,False,False,False,False,False,,,,,,,"20712 FM 225, Douglass, TX 75943, United States",31.6654799,-94.882601,Douglass ISD,588b86241115fceb860f8a5312af761dbcbe7c89
Douglas ISD,https://www.douglassisd.com/,,False,,2020-03-16,2020-03-20,False,False,False,False,False,False,False,False,,,,,,,"Douglass Independent School District, TX, USA",31.6496002,-94.8728093,Douglass Independent School District,6a23db83be154fdf61b15262b6a3f6ed1b09a17a
Duncanville ISD,https://www.duncanvilleisd.org/Page/16336,,False,,2020-03-01,2021-03-01,True,False,False,False,False,False,False,False,,,,,,,"Duncanville Independent School District, TX, USA",32.6510679,-96.93164809999999,Duncanville Independent School District,d1cdef44c905c7beabf9f64ac1e05f5ecad334ca
Eagle Mountain-Saginaw ISD,https://www.emsisd.com/site/default.aspx?PageType=3&DomainID=1&ModuleInstanceID=13660&ViewID=6446EE88-D30C-497E-9316-3F8874B3E108&RenderLoc=0&FlexDataID=84914&PageID=1,Details:  Students,False,"Northbrook Elementary, Gilland Elementary, Saginaw Elementary, Dozier Elementary, Highland Middle School, Marine Creek Middle School",2020-03-16,2020-04-07,False,True,True,False,True,False,False,False,11:00 AM,1:00 PM,,,,,"Eagle Mountain-Saginaw Independent School District, TX, USA",32.8815671,-97.4165053,Eagle Mountain-Saginaw Independent School District,c2d49e9bd50a162efc9fa03e8ec68bcabf62f191
Eagle Pass,https://www.eaglepassisd.net/covid19,,False,,2020-03-16,2020-03-20,False,False,False,False,False,False,False,False,,,,,,,"Eagle Pass, TX 78852, USA",28.7091433,-100.4995214,Eagle Pass,d7f1db8e2f1f505a531738c47f5ebad5d00052ac
Early ISD,,,False,,2020-03-16,2020-03-20,False,False,False,False,False,False,False,False,,,,,,,"Early Independent School District, TX, USA",31.7494543,-98.9024603,Early Independent School District,82dbc44e48560a3451ed4125762613229b8a6f70
East Central ISD,,,False,,2020-03-16,2020-03-20,False,False,False,False,False,False,False,False,,,,,,,"East Central Independent School District, TX, USA",29.3934197,-98.265058,East Central Independent School District,e893ee427391a79f5a80c6231d8753b6e4e7b7ef
East Chambers ISD,https://www.eastchambers.net/News/11659#sthash.PyoiUOcl.dpbs,Details:  You may drive through the connecting road between Buccaneer and School Road where the Dome Cafeteria. We will provide curbside service supplying you with a breakfast and a lunch for each of your children from,False,East Champers ISD,2020-03-16,2020-03-20,False,True,True,True,True,False,False,False,7:15 AM,10:00 AM,11:00 AM,1:00 PM,,,"East Chambers Independent School District, TX, USA",29.7848076,-94.4182089,East Chambers Independent School District,ad23a69f42454fb2270d16cb1af0a25447917392
Ector County ISD,https://www.ectorcountyisd.org,Details: This program and these meals are for students only. Families can pick up meals for all children under the age of,True,"Odessa High School, Permian High School, New Tech Odessa, Bonham Middle, Bowie Middle, Crockett Middle, Wilson Young Medal of Honor Middle, Nimitz Middle, Ector College Prep Academy, Alamo Elementary, Austin Elementary, Burleson Elementary, Burnet Elementary, Cameron Elementary, Dowling Elementary, Goliad Elementary, Gonzalez Elementary, Hays Elementary, Sam Houston Elementary, Ireland Elementary, Lamar Early Education, Pease Elementary, Reagan Elementary, Ross Elementary, San Jacinto Elementary, Travis Elementary, Zavala Elementary, Noel Elementary, Blanton Elementary, Murry Fly Elementary, Blackshear",2020-03-16,2020-03-27,False,True,True,False,True,False,False,False,7:30 AM,9:00 AM,11:30 AM,1:00 PM,,,"Ector County Independent School District, TX, USA",31.8246483,-102.5298028,Ector County Independent School District,824ca313aa9b6d632d7e9a72dfc3e676eb2d2276
Edcouch-Elsa ISD,,,False,,2020-03-16,2020-03-20,False,False,False,False,False,False,False,False,,,,,,,"Edcouch-Elsa Independent School District, TX, USA",26.280556,-97.9701846,Edcouch-Elsa Independent School District,6f4945e2a20ebf420ae797b409bd29f22e8be01f
Eden ISD,http://www.edenisd.net,,False,Where:,2020-03-16,2020-03-20,False,True,True,False,False,True,False,False,10:00 AM,11:00 AM,11:30 AM,12:30 PM,,,"118 W Brian St, Eden, TX 76837, United States",31.2186886,-99.8436978,Eden High School,a9d3f0e9762dd514359ce7b21ae6b5846e29137c
Eden ISD,http://www.edenisd.net,,False,Where:,2020-03-16,2020-03-20,False,True,True,False,False,True,False,False,10:00 AM,11:00 AM,11:30 AM,12:30 PM,,,"113 W Bryan St, Eden, TX 76837, United States",31.2180176,-99.8403604,Eden Independent School District,8a933953e45c2e11747518ab2f9833d50a05f4b3
Edinburg C.I.S.D.,https://www.earlyisd.net,,False,,2020-03-16,2020-03-20,False,False,False,False,False,False,False,False,,,,,,,"411 N 8th Ave, Edinburg, TX 78541, United States",26.3054509,-98.1655615,Edinburg CISD Administration,ae6ddda58a9b82f174365280631f72bbadce2469
Elgin ISD,https://www.elginisd.net/cms/lib6/TX01917830/Centricity/Domain/4/20200316%20Covid19_Parents.pdf,,False,,2020-03-16,2020-04-05,False,False,False,False,False,False,False,False,,,,,,,"Elgin Independent School District, TX, USA",30.3431045,-97.3732655,Elgin Independent School District,ce5ee12c98f95c863ef9dea4779d92c8d2f3a85d
El Paso Academy,https://www.elpacademy.com/,,False,,2020-03-23,2020-04-05,False,False,False,False,False,False,False,False,,,,,,,"201 W Redd Rd, El Paso, TX 79932, United States",31.8603351,-106.5901093,El Paso Academy West,0dc82db8418f1eb7180c0aa9d92e2501de9a881c
El Paso Academy,https://www.elpacademy.com/,,False,,2020-03-23,2020-04-05,False,False,False,False,False,False,False,False,,,,,,,"11000 Argal Ct, El Paso, TX 79935, United States",31.7515518,-106.3290094,El Paso Academy East,72a69fd892fc3be55449e02577d1e1db86260fb1
El Paso Academy,https://www.elpacademy.com/,,False,,2020-03-23,2020-04-05,False,False,False,False,False,False,False,False,,,,,,,"201 S Americas Ave, El Paso, TX 79907, United States",31.6808598,-106.3167733,Academy Sports + Outdoors,37d53dfbb800ea57f4c218ddd08e9bdfae455f85
El Paso Academy,https://www.elpacademy.com/,,False,,2020-03-23,2020-04-05,False,False,False,False,False,False,False,False,,,,,,,"801 S Mesa Hills Dr, El Paso, TX 79912, United States",31.8177789,-106.5401262,Academy Sports + Outdoors,787f55fc27e3f7a5ea5b77eebbf47725737a9c41
El Paso Academy,https://www.elpacademy.com/,,False,,2020-03-23,2020-04-05,False,False,False,False,False,False,False,False,,,,,,,"1918 Texas Ave, El Paso, TX 79901, United States",31.7704619,-106.4687935,El Paso Leadership Academy,f92be6c1120b164d486afcb7d8595a9cd920c40a
El Paso ISD,,Details:.,False,TBA,2020-03-16,2020-04-03,False,False,False,False,False,False,True,False,,,,,,,"El Paso Independent School District, TX, USA",31.8426766,-106.4170311,El Paso Independent School District,f450640fcfa1726ff4d87f0e11332fb9efadb3f2
El Paso Leadership Academy,http://www.epleadershipacademy.org/el-paso-leadership-academy-epla-regarding-covid-19-coronavirus/,,False,,2020-03-23,2020-03-27,False,False,False,False,False,False,True,False,,,,,,,"1918 Texas Ave, El Paso, TX 79901, United States",31.7704619,-106.4687935,El Paso Leadership Academy,f92be6c1120b164d486afcb7d8595a9cd920c40a
Ennis ISD,https://www.ennis.k12.tx.us/,,False,,2020-03-16,2020-03-20,False,False,False,False,False,False,False,False,,,,,,,"Ennis Independent School District, TX, USA",32.3185311,-96.62106109999999,Ennis Independent School District,7d4e1580328782a1a68e6c1476d3894c66ffe0b6
Etoile ISD,http://www.etoile.esc7.net/?PageName=LatestNews&Section=LatestNews&ItemID=557476&ISrc=School&Itype=News,,False,,2020-03-16,2020-03-20,False,False,False,False,False,False,False,False,,,,,,,"Etoile Independent School District, TX, USA",31.3483564,-94.3770704,Etoile Independent School District,45f704506e63580f8db7ca0086b165bc2b3b09ba
Eustace ISD,https://www.eustaceisd.net/,,False,,2020-03-16,2020-03-20,False,False,False,False,False,False,False,False,,,,,,,"320 FM316, Eustace, TX 75124, United States",32.3023853,-96.00747930000001,Eustace Independent School District,f102add6b3c8c65d70181ad34bfe195c2d8691f1
Evant ISD,,,False,,2020-03-16,2020-03-20,False,False,False,False,False,False,False,False,,,,,,,"339 N Memory Ln, Evant, TX 76525, United States",31.4735484,-98.1516875,Evant Isd School,5f5a003ab2100985968694a8ff1530c9f3b0632d
Evant ISD,,,False,,2020-03-16,2020-03-20,False,False,False,False,False,False,False,False,,,,,,,"Evant Independent School District, TX, USA",31.5036457,-98.1775638,Evant Independent School District,159a54155a2985fd7c01d9bc8ba7eafd5edc6b0e
Everman ISD,https://www.eisd.org/,Details: For all children,True,E. Ray Elementary,2020-03-16,2020-04-03,False,False,True,False,False,True,False,False,11:30 AM,1:00 PM,,,,,"Everman Independent School District, TX, USA",32.631572,-97.27607599999999,Everman Independent School District,06c66642a31a2889c2e3299e07c775f89a3d9d9e
Excelsior ISD,https://excelsiorisd.weebly.com/,,False,,2020-03-16,2020-03-20,False,False,False,False,False,False,False,False,,,,,,,"Excelsior Independent School District, TX 75935, USA",31.7027109,-94.3462373,Excelsior Independent School District,1d60a420fa71607e0a7a4b7a19ffb8eaef94eaf5
Fabens ISD,https://www.fabensisd.net/,Details: Breakfast and lunch will be provided to all students and children,False,Fabens High School Cafeteria,2020-03-23,2020-04-04,False,True,True,False,False,True,False,False,7:30 AM,9:00 AM,11:00 AM,1:00 PM,,,"Fabens Independent School District, TX, USA",31.5245328,-106.1345705,Fabens Independent School District,31e2180f9c994867e7d89be6a401120ea0cbe315
Falls City ISD,https://www.fcisd.net/,,False,,2020-03-16,2020-03-20,False,False,False,False,False,False,False,False,,,,,,,"Falls City Independent School District, TX, USA",28.9693007,-98.0247005,Falls City Independent School District,e4440f3bbdde1ec38b1e031b6042cc2acf100939
FairField ISD,https://www.fairfieldisd.net/,,False,,2020-03-16,2020-03-20,False,False,False,False,False,False,False,False,,,,,,,"Fairfield Independent School District, TX, USA",31.8009282,-96.11029429999999,Fairfield Independent School District,d0eb065e46591da757abc3d47f3c5c75cfb735da
Fort Bend ISD,https://www.facebook.com/FortBendISD/,,False,Where:,2020-03-16,2020-04-10,False,True,True,False,True,False,False,False,7:30 AM,9:00 PM,11:30 AM,1:00 PM,,,"Fort Bend Independent School District, TX, USA",29.5560621,-95.5827334,Fort Bend Independent School District,d59ba642533cdb2cc24432e54059a7f061c1398b
Fort Worth ISD,https://www.fwisd.org/site/default.aspx?PageType=3&DomainID=6638&ModuleInstanceID=1326&ViewID=6446EE88-D30C-497E-9316-3F8874B3E108&RenderLoc=0&FlexDataID=60848&PageID=23622,Details: Breakfast and lunch will be provided to all students and children,False,,2020-03-16,2020-04-10,False,True,True,False,False,True,False,False,,,,,,,"Fort Worth Independent School District, TX, USA",32.7070936,-97.33005299999999,Fort Worth Independent School District,20b1b8e6ead15d1e1e6e518feb5fa396164660c6
Frankston ISD,https://www.frankstonisd.net/,,False,,2020-03-16,2020-03-20,False,False,False,False,False,False,False,False,,,,,,,"Frankston Independent School District, TX, USA",32.0329498,-95.4987565,Frankston Independent School District,6c7052b2b7921d16a3aec5779243c5f371c9e5ea
Friendswood ISD,https://myfisd.com/covid-19/,Details:  Meals consist of a packaged lunch and a breakfast meal for the next day.,False,Bales,2020-03-16,2020-04-10,False,True,True,False,True,False,False,False,10:30 AM,12:30 PM,,,,,"Friendswood Independent School District, TX, USA",29.5079282,-95.2005729,Friendswood Independent School District,976d4ca9312f24f3b35eab14648ca8261023bf8a
Frisco ISD,https://docs.google.com/forms/d/e/1FAIpQLSesmr4h7Ow70T-fDECCfXGREegA-bzMiwI69OMXcqE_aYTaHw/viewform?fbclid=IwAR1KbucVYkybGM9vo6B_QMV1Ycg4ZFoc1H7QKSTfLUYgXBUK6UYYWPBBen0,Details: Frisco ISD will be providing FREE,False,"Where:Hunt Middle School, Lawler Middle School, Pearson Middle School, Roach Middle School, Scoggins Middle School, Trent Middle School",2020-03-16,2020-04-03,False,True,True,False,False,True,False,False,11:30 AM,12:30 PM,,,,,"Frisco Independent School District, TX, USA",33.1400054,-96.81366419999999,Frisco Independent School District,8e09c642ac06dc1b14aa5eb7120608c34ae0d795
Ft. Hancock ISD,http://www.fhisd.net/cms/One.aspx?portalId=252566&pageId=13219014&fbclid=IwAR0tB5zE5f-ogfS36tREWrZSPD41O-dvtTUbt-UeFqW2i0UQNfj_hYRhu3o ,,False,,2020-03-23,2020-03-27,False,False,False,False,False,False,False,False,,,,,,,"Fort Hancock Independent School District, TX, USA",31.6480129,-105.6881788,Fort Hancock Independent School District,72d957eec26ce59169880880120477b67ba29c1a
Galena Park ISD,https://www.galenaparkisd.com/,Details: Meals will be distributed near the bus ramp of each designated campus,False,"Woodland Acres Elementary, Sam Houston Elementary, Dr. Shirley J. Williamson Elementary, North Shore Middle School",2020-03-16,2020-04-10,False,True,True,False,True,False,False,False,7:30 AM,9:00 AM,10:45 AM,12:15 PM,,,"Galena Park Independent School District, TX, USA",29.7690048,-95.1744903,Galena Park Independent School District,555877381079ae5bb4dfe1ecd12160a99fad143e
Galveston ISD,https://www.gisd.org/site/Default.aspx?PageID=10885,,False,Mondays,2020-03-16,2020-04-10,False,True,True,False,True,False,False,False,11:00 AM,12:30 PM,,,,,"Galveston Independent School District, TX, USA",29.2716876,-94.86243549999999,Galveston Independent School District,2d3186937b42a4e4d27135d52fcf2dc4f1ccca14
Garland ISD,https://www.garlandisd.net/node/11257#CV19meals,Details: Students or families may walk up or remain in their cars to pick up meals curbside at the front of designated campus sites. One meal will be provided for each child who is present and under,False,"Back Elementary School, Coyle Middle School, Dorsey Elementary School, Giddens",2020-03-16,2020-04-03,False,False,False,False,True,True,False,False,8:00 AM,9:00 AM,12:00 PM,1:00 PM,,,"Garland Independent School District, TX, USA",32.9273635,-96.59969629999999,Garland Independent School District,32ac985ecaacf984f58c59cb20ca79b7fb134fd2
Gatesville ISD,https://www.facebook.com/pg/Gatesvilleisd/posts/?ref=page_internal,Details: Students in any grade may go to either of those locations and receive a sack meal.,False,Primary and Elementary Campus Parking Lots,2020-03-16,2020-03-20,False,True,True,True,False,True,False,False,,,,,,,"Gatesville Independent School District, TX, USA",31.439983,-97.7416703,Gatesville Independent School District,f78477e1f177cb5d89789fddd0b4667d404b7511
Georgetown ISD,https://www.georgetownisd.org/coronavirus,,False,,2020-03-15,2020-04-03,False,False,False,False,False,False,False,False,,,,,,,"Georgetown Independent School District, TX, USA",30.6461757,-97.6765157,Georgetown Independent School District,c86b6b427b4299b8c62af9b0456c9f7b3e587d0a
Giddings ISD,https://www.giddingsisd.net/article/208727?org=giddings-isd,,False,,2020-03-16,2020-03-20,False,False,False,False,False,False,False,False,,,,,,,"2337 N Main St, Giddings, TX 78942, United States",30.201823,-96.93243819999999,Giddings Independent School District,011c56dc9ae077480d5ecec908b788dd1eb24b2d
Giddings ISD,https://www.giddingsisd.net/article/208727?org=giddings-isd,,False,,2020-03-16,2020-03-20,False,False,False,False,False,False,False,False,,,,,,,"2335 N Main St, Giddings, TX 78942, United States",30.20169649999999,-96.9313966,Giddings Middle School,07f8074d55538bbc36f5d692336296817b4e6993
Gilmer ISD,https://www.gilmerisd.org/,,False,,2020-03-16,2020-03-20,False,False,False,False,False,False,False,False,,,,,,,"Gilmer Independent School District, TX, USA",32.7349582,-94.9143239,Gilmer Independent School District,2dff16a9bc750ef63b435f172183d2da2dd45080
Gladewater ISD,http://www.gladewaterisd.com/page/article/230,,False,,2020-03-16,2020-03-27,False,False,False,False,False,False,False,False,,,,,,,"Gladewater Independent School District, TX, USA",32.5077992,-94.9558696,Gladewater Independent School District,6b721737df7e1648d878dc6c2aa2fddaa85a96d3
Goose Creek CISD,,,False,"Where:Alamo, Ashbel Smith, Austin, Ba",2020-03-16,2020-04-10,False,True,True,False,False,True,False,False,10:00 AM,1:00 PM,,,,,"Goose Creek Consolidated Independent School District, TX, USA",29.7658068,-94.9558696,Goose Creek Consolidated Independent School District,a32d9275f5846468a91ae7dc851e5816e8b84327
Grand Prairie ISD,https://www.gpisd.org/HealthUpdates?fbclid=IwAR3ui_hubtt2ISC_zxrUVw0ffLAHZhc76siCwPZQm0D5REBboRO2qUJ7ins,Details: Beginning Tuesday,True,Not Specified,2020-03-17,2020-03-20,False,True,True,False,True,False,False,False,7:00 AM,8:00 AM,10:30 AM,12:00 PM,,,"Grand Prairie Independent School District, TX, USA",32.7267785,-96.9853474,Grand Prairie Independent School District,3224555a7ce9698037de71b75315029f34b5595d
Grand Saline ISD,http://www.grandsalineisd.net/page/article/17,,False,,2020-03-16,2020-03-20,False,False,False,False,False,False,False,False,,,,,,,"Grand Saline Independent School District, TX, USA",32.65631990000001,-95.70892409999999,Grand Saline Independent School District,99c1295de6c06455820061285e17a44716163efa
Grape Creek ISD,http://www.grapecreekisd.net,Details: Regular education routes,False,"Grape Creek Elementary, Grape Creek Middle, Grape Creek Administration Parking Lot",2020-03-16,2020-03-27,False,True,True,False,False,True,False,True,8:00 AM,9:00 AM,11:30 AM,12:30 PM,,,"Grape Creek Independent School District, TX, USA",31.6060797,-100.4846227,Grape Creek Independent School District,8b163bf678231f09a85a7f80ac9c06af2cfb09dd
Grapeland ISD,,,False,,2020-03-16,2020-03-20,False,False,False,False,False,False,False,False,,,,,,,"Grapeland Independent School District, TX, USA",31.4876599,-95.4987565,Grapeland Independent School District,e4a0fa1ed849863acd12e05288195bf80e63d2b6
Grapevine-Colleyville ISD,https://www.gcisd.net/cms/One.aspx?portalId=96313&pageId=29559978,Details: Bagged lunch,False,"Grapevine Middle School, Timberline Elementary, and Bear Creek Elementary School",2020-03-16,2020-04-03,False,True,True,False,True,False,False,False,11:00 AM,12:00 PM,,,,,"Grapevine-Colleyville Independent School District, TX, USA",32.9015724,-97.0713572,Grapevine-Colleyville Independent School District,de4e349ddbd169f96b70694ce58fecf003d81466
Grosebeck ISD,https://www.groesbeckisd.net/,,False,,2020-03-16,2020-03-27,False,False,False,False,False,False,True,False,,,,,,,"Groesbeck Independent School District, TX, USA",31.4162409,-96.5356449,Groesbeck Independent School District,90ce0e2d0fb59b4a8ea5886c2c43565abf5b6547
Gunter ISD,https://www.gunterisd.org/site/default.aspx?PageType=3&DomainID=4&ModuleInstanceID=3758&ViewID=6446EE88-D30C-497E-9316-3F8874B3E108&RenderLoc=0&FlexDataID=6217&PageID=1,Details: Will include lunch for that day and breakfast for the next day.,False,Drive through elementary school car line,2020-03-16,2020-04-03,False,True,True,False,True,False,False,False,11:00 am,1:00 pm,,,,,"Gunter Independent School District, TX, USA",33.4552663,-96.7708138,Gunter Independent School District,f6345aaf3644b447d65fd0885bba8f7382d27c08
Hallsville ISD,https://www.hisd.com/Page/8249,Details: Hallsville ISD will be handing out sack lunches in front of Hallsville High School for students. PLEASE HAVE YOUR STUDENT ID NUMBERS when picking up lunches.,False,Hallsville High School,2020-03-16,2020-03-20,False,False,True,False,False,True,False,False,10:00 AM,12:00 PM,,,,,"Hallsville Independent School District, TX, USA",32.4985611,-94.6037231,Hallsville Independent School District,5c07847ad091548622975c7f5de1e6ef4e702d95
Hardin ISD,,,False,,2020-03-16,2020-03-20,False,False,False,False,False,False,False,False,,,,,,,"Hardin Independent School District, TX, USA",30.2807588,-94.7484518,Hardin Independent School District,0651e99e05f0c871a66c74b5fce7bdb7bb8a8347
Harlandale ISD,,,False,,2020-03-16,2020-03-20,False,False,False,False,False,False,False,False,,,,,,,"Harlandale Independent School District, San Antonio, TX, USA",29.3443463,-98.49522280000001,Harlandale Independent School District,892b0d79b6db5f51a1a0b3ba85eb7982ec69f3d8
Harleton ISD,https://www.hisd.com/Page/8249,,False,,2020-03-16,2020-03-27,False,False,False,False,False,False,False,False,,,,,,,"Harleton Independent School District, TX, USA",32.657304,-94.58307889999999,Harleton Independent School District,ebb794a83b63e477a3fcdba46e87899bbff184c6
Harmonay Science Academy - ALL Statewide,https://www.harmonytx.org/apply/?gclid=CjwKCAjwgbLzBRBsEiwAXVIygHMPgEnWwQ_wrMs9N4VNAgoLwd6ge8_pQoN5iGM1zUJgeKo544C4RRoC_gsQAvD_BwE,,False,,2020-03-16,2020-03-30,False,False,False,False,False,False,False,False,,,,,,,"930 E Rundberg Ln, Austin, TX 78753, United States",30.357269,-97.68483700000002,Harmony Science Academy - Austin,bbf334aae693d50c58830815f6f8a0a3b054650a
Harmonay Science Academy - ALL Statewide,https://www.harmonytx.org/apply/?gclid=CjwKCAjwgbLzBRBsEiwAXVIygHMPgEnWwQ_wrMs9N4VNAgoLwd6ge8_pQoN5iGM1zUJgeKo544C4RRoC_gsQAvD_BwE,,False,,2020-03-16,2020-03-30,False,False,False,False,False,False,False,False,,,,,,,"9431 W Sam Houston Pkwy S, Houston, TX 77099, United States",29.6812555,-95.557216,Harmony Science Academy - High School,3369e3179a500d08ce558ce87c193acd786c6c9d
Harmonay Science Academy - ALL Statewide,https://www.harmonytx.org/apply/?gclid=CjwKCAjwgbLzBRBsEiwAXVIygHMPgEnWwQ_wrMs9N4VNAgoLwd6ge8_pQoN5iGM1zUJgeKo544C4RRoC_gsQAvD_BwE,,False,,2020-03-16,2020-03-30,False,False,False,False,False,False,False,False,,,,,,,"1900 N Valley Mills Dr, Waco, TX 76710, United States",31.5316054,-97.2016926,Harmony Science Academy - Waco,7d975ccfb8ba8139a6cd6b9bbdc23983a00581c0
Harmonay Science Academy - ALL Statewide,https://www.harmonytx.org/apply/?gclid=CjwKCAjwgbLzBRBsEiwAXVIygHMPgEnWwQ_wrMs9N4VNAgoLwd6ge8_pQoN5iGM1zUJgeKo544C4RRoC_gsQAvD_BwE,,False,,2020-03-16,2020-03-30,False,False,False,False,False,False,False,False,,,,,,,"12005 Forestgate Dr, Dallas, TX 75243, United States",32.9126008,-96.70416759999999,Harmony Science Academy - Dallas High,762645d8f5885c0344f0dbf080fde344b37a6507
Harmonay Science Academy - ALL Statewide,https://www.harmonytx.org/apply/?gclid=CjwKCAjwgbLzBRBsEiwAXVIygHMPgEnWwQ_wrMs9N4VNAgoLwd6ge8_pQoN5iGM1zUJgeKo544C4RRoC_gsQAvD_BwE,,False,,2020-03-16,2020-03-30,False,False,False,False,False,False,False,False,,,,,,,"8505 Lakeside Pkwy, San Antonio, TX 78245, United States",29.431304,-98.65319199999999,Harmony Science Academy - San Antonio,5d249342900f3b0698233721c27d7a2c8d9cbb13
Harmonay Science Academy - ALL Statewide,https://www.harmonytx.org/apply/?gclid=CjwKCAjwgbLzBRBsEiwAXVIygHMPgEnWwQ_wrMs9N4VNAgoLwd6ge8_pQoN5iGM1zUJgeKo544C4RRoC_gsQAvD_BwE,,False,,2020-03-16,2020-03-30,False,False,False,False,False,False,False,False,,,,,,,"701 S Industrial Blvd #115, Euless, TX 76040, United States",32.8282305,-97.09786989999999,Harmony Science Academy Euless,2be6903d842f0e3ee1490f4511c0e94797c56469
Harmonay Science Academy - ALL Statewide,https://www.harmonytx.org/apply/?gclid=CjwKCAjwgbLzBRBsEiwAXVIygHMPgEnWwQ_wrMs9N4VNAgoLwd6ge8_pQoN5iGM1zUJgeKo544C4RRoC_gsQAvD_BwE,,False,,2020-03-16,2020-03-30,False,False,False,False,False,False,False,False,,,,,,,"5651 Westcreek Dr, Fort Worth, TX 76133, United States",32.662288,-97.3602512,Harmony Science Academy - Fort Worth,be89247aebe24c3b853dbe0805be22a02437964d
Harmonay Science Academy - ALL Statewide,https://www.harmonytx.org/apply/?gclid=CjwKCAjwgbLzBRBsEiwAXVIygHMPgEnWwQ_wrMs9N4VNAgoLwd6ge8_pQoN5iGM1zUJgeKo544C4RRoC_gsQAvD_BwE,,False,,2020-03-16,2020-03-30,False,False,False,False,False,False,False,False,,,,,,,"2755 N Grandview Ave, Odessa, TX 79762, United States",31.8772116,-102.3498775,Harmony Science Academy - Odessa,abf3a2705bcfc912a524b838a4bef6c3f5813fca
Harmonay Science Academy - ALL Statewide,https://www.harmonytx.org/apply/?gclid=CjwKCAjwgbLzBRBsEiwAXVIygHMPgEnWwQ_wrMs9N4VNAgoLwd6ge8_pQoN5iGM1zUJgeKo544C4RRoC_gsQAvD_BwE,,False,,2020-03-16,2020-03-30,False,False,False,False,False,False,False,False,,,,,,,"1024 W Rosemeade Pkwy building 2, Carrollton, TX 75007, United States",33.0114152,-96.91305179999999,Harmony Science Academy Carrollton,d359518b808f678265558c28b7d9ef9a361d3d2d
Harmonay Science Academy - ALL Statewide,https://www.harmonytx.org/apply/?gclid=CjwKCAjwgbLzBRBsEiwAXVIygHMPgEnWwQ_wrMs9N4VNAgoLwd6ge8_pQoN5iGM1zUJgeKo544C4RRoC_gsQAvD_BwE,,False,,2020-03-16,2020-03-30,False,False,False,False,False,False,False,False,,,,,,,"13415 W Bellfort Blvd, Sugar Land, TX 77478, United States",29.6610203,-95.6177867,Harmony Science Academy Sugar Land,f3619b7829f3a913bbaba847e8cd5b0cc6123fd3
Harmonay Science Academy - ALL Statewide,https://www.harmonytx.org/apply/?gclid=CjwKCAjwgbLzBRBsEiwAXVIygHMPgEnWwQ_wrMs9N4VNAgoLwd6ge8_pQoN5iGM1zUJgeKo544C4RRoC_gsQAvD_BwE,,False,,2020-03-16,2020-03-30,False,False,False,False,False,False,False,False,,,,,,,"2302 Firewheel Pkwy, Garland, TX 75040, United States",32.9349888,-96.59881270000001,Harmony Science Academy,9edafe47cb42857aa9eefcf8ce61ac5edfd0b80f
Harmonay Science Academy - ALL Statewide,https://www.harmonytx.org/apply/?gclid=CjwKCAjwgbLzBRBsEiwAXVIygHMPgEnWwQ_wrMs9N4VNAgoLwd6ge8_pQoN5iGM1zUJgeKo544C4RRoC_gsQAvD_BwE,,False,,2020-03-16,2020-03-30,False,False,False,False,False,False,False,False,,,,,,,"4055 Calder Ave, Beaumont, TX 77706, United States",30.0846795,-94.1452187,Harmony Science Academy Beaumont,447fa7c9af00a6066505f6f928e1522278fde974
Harmonay Science Academy - ALL Statewide,https://www.harmonytx.org/apply/?gclid=CjwKCAjwgbLzBRBsEiwAXVIygHMPgEnWwQ_wrMs9N4VNAgoLwd6ge8_pQoN5iGM1zUJgeKo544C4RRoC_gsQAvD_BwE,,False,,2020-03-16,2020-03-30,False,False,False,False,False,False,False,False,,,,,,,"9405 Betel Dr, El Paso, TX 79907, United States",31.6991805,-106.2986559,Harmony Science Academy - El Paso,a452be6f707bedab7dfac1aaa47ffd8c2a8d028b
Harmonay Science Academy - ALL Statewide,https://www.harmonytx.org/apply/?gclid=CjwKCAjwgbLzBRBsEiwAXVIygHMPgEnWwQ_wrMs9N4VNAgoLwd6ge8_pQoN5iGM1zUJgeKo544C4RRoC_gsQAvD_BwE,,False,,2020-03-16,2020-03-30,False,False,False,False,False,False,False,False,,,,,,,"22400 Grand Corner Dr, Katy, TX 77494, United States",29.7021351,-95.7733475,HARMONY SCIENCE ACADEMY - KATY,da72d36760d23d9d952010f70fd99a24a4f3ed97
Harmonay Science Academy - ALL Statewide,https://www.harmonytx.org/apply/?gclid=CjwKCAjwgbLzBRBsEiwAXVIygHMPgEnWwQ_wrMs9N4VNAgoLwd6ge8_pQoN5iGM1zUJgeKo544C4RRoC_gsQAvD_BwE,,False,,2020-03-16,2020-03-30,False,False,False,False,False,False,False,False,,,,,,,"1421 Wells Branch Pkwy #200, Pflugerville, TX 78660, United States",30.4392001,-97.6637951,Harmony Science Academy - Pflugerville,5a6fcbe030bce6cddd78528bcf2b1690f7b7a39b
Harmonay Science Academy - ALL Statewide,https://www.harmonytx.org/apply/?gclid=CjwKCAjwgbLzBRBsEiwAXVIygHMPgEnWwQ_wrMs9N4VNAgoLwd6ge8_pQoN5iGM1zUJgeKo544C4RRoC_gsQAvD_BwE,,False,,2020-03-16,2020-03-30,False,False,False,False,False,False,False,False,,,,,,,"12200 Anderson Mill Rd, Austin, TX 78726, United States",30.4593313,-97.8319808,Harmony Science Academy - Cedar Park,9f7870c9955190380e5c8bb8ebb4b8ed0d94aa0e
Harmonay Science Academy - ALL Statewide,https://www.harmonytx.org/apply/?gclid=CjwKCAjwgbLzBRBsEiwAXVIygHMPgEnWwQ_wrMs9N4VNAgoLwd6ge8_pQoN5iGM1zUJgeKo544C4RRoC_gsQAvD_BwE,,False,,2020-03-16,2020-03-30,False,False,False,False,False,False,False,False,,,,,,,"1124 Central Blvd, Brownsville, TX 78520, United States",25.9212788,-97.510803,Harmony Science Academy,54ddfd9e72ffe4a1929f25b6b292113db74ba2ec
Harmonay Science Academy - ALL Statewide,https://www.harmonytx.org/apply/?gclid=CjwKCAjwgbLzBRBsEiwAXVIygHMPgEnWwQ_wrMs9N4VNAgoLwd6ge8_pQoN5iGM1zUJgeKo544C4RRoC_gsQAvD_BwE,,False,,2020-03-16,2020-03-30,False,False,False,False,False,False,False,False,,,,,,,"11945 Forestgate Dr, Dallas, TX 75243, United States",32.9111624,-96.7048362,Harmony Science Academy Dallas Elementary (K-5),c19b9abdfc2505d1a97735f14197af7159511972
Harmonay Science Academy - ALL Statewide,https://www.harmonytx.org/apply/?gclid=CjwKCAjwgbLzBRBsEiwAXVIygHMPgEnWwQ_wrMs9N4VNAgoLwd6ge8_pQoN5iGM1zUJgeKo544C4RRoC_gsQAvD_BwE,,False,,2020-03-16,2020-03-30,False,False,False,False,False,False,False,False,,,,,,,"550 Talbert Dr, Plano, TX 75075, United States",33.0088038,-96.77771820000001,Harmony Science Academy Plano,77760a4242aba41cfeb481828179e2982f4463bf
Harmonay Science Academy - ALL Statewide,https://www.harmonytx.org/apply/?gclid=CjwKCAjwgbLzBRBsEiwAXVIygHMPgEnWwQ_wrMs9N4VNAgoLwd6ge8_pQoN5iGM1zUJgeKo544C4RRoC_gsQAvD_BwE,,False,,2020-03-16,2020-03-30,False,False,False,False,False,False,False,False,,,,,,,"4401 A, San Francisco Ave, Laredo, TX 78041, United States",27.5362878,-99.4986165,Harmony Science Academy - Laredo,f788275165a2b44747a0dcb3de94c7ca2e59bb76
Harmony ISD,https://www.harmonyisd.net/,,False,,2020-03-16,2020-03-20,False,False,False,False,False,False,False,False,,,,,,,"Harmony Independent School District, TX, USA",32.7716904,-95.1223608,Harmony Independent School District,9e0af0a8ed167de09e455d3882df72f27c1e42da
Hays CISD,https://www.hayscisd.net/Page/11181,,False,,2020-03-16,2020-04-05,False,False,False,False,False,False,False,False,,,,,,,"Hays Consolidated Independent School District, TX, USA",30.0590448,-97.9157099,Hays Consolidated Independent School District,e399764b1ea0fc0c49b47bd62c5ada8080314471
Hempstead ISD,,,False,Hempstead Elementary,2020-03-16,2020-04-10,False,True,True,False,True,False,False,False,9:00 AM,11:30 AM,9:00 am,10:10 am,10:25 am,11:30 am,"Hempstead Independent School District, TX, USA",30.0873794,-96.0891032,Hempstead Independent School District,cdd2488c0ef9cd1d8ab7e98e820a431c920b0439
Henderson ISD,,,False,,2020-03-16,2020-03-24,False,False,False,False,False,False,False,False,,,,,,,"Henderson Independent School District, TX, USA",32.1335229,-94.6863782,Henderson Independent School District,9764bb9daed6af3814e6de809c92f820bf435a74
Hitchcock ISD,https://www.hitchcockisd.org/,Details:  A bus will be parked in front of each location,False,"KFHS Parking Lot, Crosby Middle School",2020-03-16,2020-03-20,False,False,False,False,False,True,False,False,10:30 AM,11:30 AM,2:30 PM,3:30 PM,,,"Hitchcock Independent School District, TX, USA",29.3014872,-94.99744609999999,Hitchcock Independent School District,624f4028a2329423a8f1acb26932305605ea68c0
Hondo ISD,https://www.hondoisd.net/,,False,,,,False,False,False,False,False,False,True,False,,,,,,,"Hondo Independent School District, TX, USA",29.3357982,-99.14561529999999,Hondo Independent School District,597053b718f1dcd1261987227052f784bbc3d3eb
Honey Grove ISD,https://www.honeygroveisd.net/,Details:  Child must be present for pickup. Drive thru the elementary pick up line.,False,Elementary School,2020-03-16,2020-04-03,False,True,True,False,True,False,False,True,9:30 AM,11:00 AM,,,,,"Honey Grove Independent School District, TX, USA",33.6093791,-95.94097099999999,Honey Grove Independent School District,d176e584044cd40a89f22ec19e06eb772542500e
Houston ISD,https://www.houstonisd.org/healthalerts,,False,,2020-03-13,2020-04-10,False,False,False,False,False,False,False,False,,,,,,,"Houston Independent School District, TX, USA",29.727312,-95.35208759999999,Houston Independent School District,d8867890c0a20b9d3bb9112119b6ccf3de18238f
Huffman ISD,https://www.huffmanisd.net/,,False,HES in the back at Copeland cafeteria area,2020-03-13,2020-04-10,False,True,True,False,True,False,False,False,,,,,,,"24302 FM 2100, Huffman, TX 77336, United States",30.0272101,-95.0877079,Huffman Independent School District,09b3314574fb6f5db03acd4c3c367e8f18e9f8e7
Hughes Springs ISD,https://www.hsisd.net/page/COVID19,,False,,2020-03-16,2020-03-20,False,False,False,False,False,False,False,False,,,,,,,"Hughes Springs Independent School District, TX, USA",33.0392247,-94.6037231,Hughes Springs Independent School District,2d9d8572e8c4aff877a621027a4154c6e70c5f4b
Hull-Daisetta ISD,,,False,,2020-03-16,2020-03-20,False,False,False,False,False,False,False,False,,,,,,,"Daisetta, TX 77533, United States",30.117015,-94.64486699999999,Hull-Daisetta High School,cd19fd03569b035abdf46a2745a965a058cc74f5
Humble ISD,https://www.humbleisd.net/site/default.aspx?PageType=3&ModuleInstanceID=174671&ViewID=7b97f7ed-8e5e-4120-848f-a8b4987d588f&RenderLoc=0&FlexDataID=355948&PageID=111376,Details:  Reservations are not required but are appreciated. They can be submitted through the school website.,False,"Elm Grove Elementary School, Oaks Elementary School, Ridge Creek Elementary School, River Pines Elementary School, Humble Middle School, and Ross Sterling Middle School",2020-03-16,2020-04-10,False,True,True,False,True,False,False,False,10:00 AM,11:00 AM,,,,,"Humble Independent School District, TX, USA",30.0108839,-95.18492189999999,Humble Independent School District,7a2bf490288541cbe025cbb0f652495214cbc574
Huntington ISD,https://www.huntingtonisd.com/apps/news/article/1184419,,False,,2020-03-16,2020-03-20,False,False,False,False,False,False,False,False,,,,,,,"Huntington Independent School District, TX, USA",31.3205454,-94.5211935,Huntington Independent School District,f43859924de6a08b23495566aacc88fe275bff8c
Hurst-Euless-Bedford ISD,https://www.hebisd.edu/coronavirus?fbclid=IwAR1OzK5Tmb6-Hqax4AOKWTrVhrOBqb6PXmB0VDKjDUNSXf2vZ-dTRlzPNbc,Details: HEB ISD will offer free breakfast and lunch for all children,True,"Bellaire Elementary, Midway Park Elementary, Oakwood Terrace Elementary, Stonegate  Elementary, West Hurst Elementary, Hurst Junior High",2020-03-16,2020-04-03,False,True,True,False,True,False,False,False,8:00 AM,9:00 AM,11:00 AM,12:00 PM,,,"Hurst-Euless-Bedford Independent School District, TX, USA",32.8199769,-97.12516989999999,Hurst-Euless-Bedford Independent School District,84ebebb595e7bc1013d4c0e9c410223eb60c8705
Irion County ISD,https://www.irion-isd.org,,False,,2020-03-16,2020-03-27,False,False,False,False,False,False,False,False,,,,,,,"302 N 3rd St, Mertzon, TX 76941, United States",31.2605104,-100.8228019,Irion County School District,c17fb1797b822195f13eaa3bee008e36367487ef
Irving ISD,https://www.irvingisd.net/coronavirus,Details: Free,False,"Bowie, Crockett, Houston and Lamar Middle Schools as well as Keyes and Lee Elementary Schools",2020-03-24,2020-04-03,False,False,True,False,True,False,False,False,10:00 AM,1:00 PM,,,,,"Irving Independent School District, TX, USA",32.8190235,-96.9423844,Irving Independent School District,8cac1051b5ce64065b073e5df1fc8741ed82a4d7
Italy ISD,http://www.italyisd.org/news/spring-break-extended-through-march-20,,False,,2020-03-16,2020-03-27,False,False,False,False,False,False,True,False,,,,,,,"Italy Independent School District, TX, USA",32.14786490000001,-96.85654269999999,Italy Independent School District,3262af3f62fec953a21e81f51a6c4ea286a392fe
Jacksboro ISD,https://www.jacksboroisd.net/,,False,,2020-03-01,2021-03-01,True,False,False,False,False,False,False,False,,,,,,,"Jacksboro Independent School District, TX, USA",33.3035438,-98.1775638,Jacksboro Independent School District,b912ada93ed1e90e328a09a6ab1531a9111c07b2
Jacksonville ISD,https://www.jisd.org/,,False,,2020-03-16,2020-03-20,False,False,False,False,False,False,False,False,,,,,,,"Jacksonville Independent School District, TX, USA",31.9293086,-95.26844369999999,Jacksonville Independent School District,2f2fbcdcb8902eeb88af7941cf3b21bd92a0f8a1
Jourdanton ISD,https://www.jourdantonisd.net/,Details: JISD will be providing curbside meals to any child,False,ECC Cafeteria Side Doors,2020-03-16,2020-03-20,False,True,True,False,True,False,False,False,8:00 AM,9:00 Am,11:00 AM,12:00 PM,,,"200 Zanderson Ave, Jourdanton, TX 78026, United States",28.9081354,-98.54070349999999,Jourdanton ISD,2d72583734e5d744fef8fe51218dfff444b8bc02
Jubilee Academies,,,False,,2020-03-16,2020-03-20,False,False,False,False,False,False,False,False,,,,,,,"4434 Roland Rd, San Antonio, TX 78222, United States",29.377635,-98.406741,Jubilee Academies,ac79da260f0a98ccd7cdf5ebf48325f2c9480005
Judson ISD,,,False,,2020-03-16,2020-03-20,False,False,False,False,False,False,False,False,,,,,,,"Judson Independent School District, TX, USA",29.539781,-98.3197946,Judson Independent School District,2c0d22112077998b18fbe652e5db01f586bb2c55
Junction ISD,https://www.junctionisd.net,,False,,2020-03-16,2020-03-20,False,False,False,False,False,False,True,False,,,,,,,"Junction Independent School District, TX, USA",30.4338473,-99.8124935,Junction Independent School District,c63f9ddfcb18972e3336c98b994eb1f164d24d1c
Katy ISD,http://www.katyisd.org/Pages/default.aspx,Details: School breakfast and lunches will be offered to all Katy area children ages,False,"Bear Creek Elementary, Bethke Elementary, Golbow Elementary, Hutsell Elementary, Mayde Creek Elementary, Memorial Parkway Elementary, Sundown Elementary, West Memorial Elementary, Williams Elementary,",2020-03-16,2020-04-13,False,True,True,False,True,False,False,False,9:00 AM,11:30 AM,,,,,"Katy Independent School District, TX, USA",29.7798686,-95.7510475,Katy Independent School District,2daafb28c844ae35e51a39c2ddfe3435216f034e
Kaufman ISD,https://www.kaufmanisd.net/district/district-news,Details: Starting Monday,False,Kaufman High School,2020-03-23,2020-04-03,False,True,True,False,False,True,False,True,8:00 AM,9:00 PM,11:00 AM,12:30 PM,11:00 AM,12:30 PM,"Kaufman Independent School District, TX, USA",32.5872016,-96.2163597,Kaufman Independent School District,25e8b24774ba162f2870890533c2f16a3d85ae75
Keller ISD,https://www.kellerisd.net/site/default.aspx?PageType=3&DomainID=88&ModuleInstanceID=370&ViewID=6446EE88-D30C-497E-9316-3F8874B3E108&RenderLoc=0&FlexDataID=70626&PageID=288&fbclid=IwAR3Lls5nhusnsJa4e-pdATykuhKqJ-ew2tYph3SDf9EbH_NHg0OEuLsCy98,Details: Meals will be served curbside at these,False,"Basswood Elementary School, Bluebonnet Elementary School, Caprock Elementary School, Eagle Ridge Elementary School, Friendship Elementary School, Heritage Elementary School, Keller",2020-03-16,2020-04-03,False,True,True,False,True,False,False,False,10:30 AM,1:00 PM,,,,,"Keller Independent School District, TX, USA",32.9365496,-97.24371049999999,Keller Independent School District,62697a987b7b4135b04afa9df7577174fe24c01a
Kennard ISD,,,False,,2020-03-16,2020-03-20,False,False,False,False,False,False,False,False,,,,,,,"Kennard Independent School District, TX, USA",31.386773,-95.18492189999999,Kennard Independent School District,3832f8c11bae8a33c7b4792c63293789bb938514
Kerens ISD,https://www.kerensisd.org/,,False,,2020-03-16,2020-03-20,False,False,False,False,False,False,False,False,,,,,,,"200 Bobcat Ln, Kerens, TX 75144, United States",32.1229112,-96.226022,Kerens Independent School District,f35bdbd5a597299f244e8f8c5e0c0ae408d4a1df
Kilgore ISD,https://www.kisd.org/apps/news/article/1184836,,False,,2020-03-16,2020-03-20,False,False,False,False,False,False,False,False,,,,,,,"301 N Kilgore St, Kilgore, TX 75662, United States",32.3881588,-94.8745637,Kilgore Independent School District,788ff2af513b3d6a84e04c3e20e1c52d56f13b9a
Kilgore ISD,https://www.kisd.org/apps/news/article/1184836,,False,,2020-03-16,2020-03-20,False,False,False,False,False,False,False,False,,,,,,,"Kilgore Independent School District, TX, USA",32.3770699,-94.8313257,Kilgore Independent School District,be8f972bd8d187a8b88aaad08ab5d94fd0da65c6
Killeen ISD,,,False,,2020-03-16,2020-03-20,False,False,False,False,False,False,False,False,,,,,,,"Killeen Independent School District, TX, USA",31.1670884,-97.7416703,Killeen Independent School District,76e1681a7e8267aafdf8db513b0cc95509897783
KIPP Texas ,https://kipptexas.org/kipp-texas-school-buildings-closed-march-23-27/,,False,,2020-03-23,2020-03-27,False,False,False,False,False,False,False,False,,,,,,,"201 E 144th St, The Bronx, NY 10451, United States",40.8161313,-73.9262261,KIPP NYC College Prep High School,d48fafcb0af91733f99fac8099344e4d8b1a5ec7
KIPP Texas ,https://kipptexas.org/kipp-texas-school-buildings-closed-march-23-27/,,False,,2020-03-23,2020-03-27,False,False,False,False,False,False,False,False,,,,,,,"433 W 123rd St, New York, NY 10027, United States",40.8108537,-73.9563386,Kipp To College,cf107272e1ae63b613872cf18bc7cc0727b6b87d
Klein ISD,https://kleinisd.net/cms/One.aspx?portalId=568125&pageId=1974168,Details:  Each child will receive a week,False," Hildebrant Intermediate, Klein Annex, Strack Intermediate, Klein Intermediate, Wunderlich Intermediate, Wunderlick Intermediate",2020-03-16,2020-03-20,False,True,True,False,True,False,False,False,,,,,,,"Klein Independent School District, TX, USA",30.0655457,-95.5407299,Klein Independent School District,10f7ec614bf332a3739157431d9ae83890f7cf97
Knippa ISD,https://www.knippaisd.net/ ,,False,,2020-03-18,2020-03-30,False,False,False,False,False,False,False,False,,,,,,,"100 Kessler St, Knippa, TX 78870, United States",29.2997001,-99.6334919,Knippa Independent School District,6ed7296e5128c97a8770aa3cfbc6bbf31cfb5bf6
La Porte ISD,https://www.lpisd.org/,Details: The meals will be handed out drive-thru style to all children who are,True,James H. Baker Sixth Grade Campus,2020-03-16,2020-03-20,False,True,True,False,True,False,False,False,7:30 AM,9:00 AM,11:00 AM,12:30 PM,,,"La Porte Independent School District, TX, USA",29.6702429,-95.0390536,La Porte Independent School District,f9ea52dbe96b663830bae05b107c7734d9f80536
La Vega ISD,https://www.lavegaisd.org/apps/news/article/1185268,Details: Anyone under,False,Every District Campus,2020-03-16,2020-03-27,False,True,True,False,True,False,False,False,6:30 AM,8:30 AM,11:00 AM,1:00 PM,,,"La Vega Independent School District, TX, USA",31.6031285,-97.0821162,La Vega Independent School District,6dfd20715d20e0242236dfad1e7697cafe73e20a
Lake Dallas ISD,https://www.ldisd.net/Page/7308,Details: Lake Dallas ISD will provide free meals for all students,False,Lake Dallas Elementary School,2020-03-24,2020-04-03,False,True,True,False,True,False,False,False,7:30 AM,9:00 AM,11:30 AM,1:00 PM,,,"Lake Dallas Independent School District, TX, USA",33.1174921,-97.0175879,Lake Dallas Independent School District,a5dd8293e86310276141145c0ce67f24da093add
Lake Worth ISD,https://www.facebook.com/lwisd/photos/a.805483662806332/2930856560269021/?type=3&theater,Details: Meals will be located at the front of each school during these times. To provide additional support to our families during this time Child Nutrition wil offer Grab and Go Lunch and Breakfast,False,,2020-03-16,2020-04-03,False,True,True,False,True,False,False,False,11:00 AM,12:30 PM,,,,,"Lake Worth Independent School District, TX, USA",32.8208397,-97.4002872,Lake Worth Independent School District,bb3014fed29aee19b0f9278b6eca19ad08c823c1
Lamar CISD,https://www.lcisd.org/about/lamar-cisd-covid-19-coronavirus-updates?fbclid=IwAR0iAaYppEZOwo8yIvIwdWKZNbWn_RwjBwLtGcRHMxO88cV4Jk9zwm3flqA,Details: These meals will be available for free for anyone,False,"Beasley Elementary, Foster High School, Fulshear High School, George Ranch High School, Lamar Consolidated High School,",2020-03-16,2020-03-20,False,True,True,False,True,True,False,False,,,,,,,"Lamar Consolidated Independent School District, TX, USA",29.5248666,-95.77212039999999,Lamar Consolidated Independent School District,e119a7f1a8c4b491e065d852527c2777d4a961a1
Lancaster ISD,https://www.lancasterisd.org/Page/1187,Details: Lancaster ISD will provide FREE drive-thru or curbside meals at Lancaster High School between,False,Lancaster High School,2020-03-16,2020-04-03,False,True,True,False,True,False,False,False,,,,,,,"Lancaster Independent School District, TX, USA",32.591762,-96.7815237,Lancaster Independent School District,bb23ea6218ef4cdc56e708689ec953b4be544d78
La Pryor ISD,https://www.facebook.com/profile.php?id=100013659931969,Details: The meals are for all children ages,True,Unspecified,2020-03-16,2020-03-20,False,True,True,False,True,False,False,False,7:30 AM,8:45 AM,11:00 AM,12:30 PM,,,"La Pryor Independent School District, TX, USA",29.0020679,-99.9465077,La Pryor Independent School District,642bf9794c7eeb547dd696aa7e772736ffe8f151
Latexo ISD,,,False,,2020-03-16,2020-03-20,False,False,False,False,False,False,False,False,,,,,,,"Latexo Independent School District, TX, USA",31.3965232,-95.4987565,Latexo Independent School District,ce8861f7caf95a1a8eb635d532ab928f56e13e05
La Vernia ISD,https://www.lvisd.org/Page/3634,Details: All current LVISD students are welcome to use this service,False,Intermediate School Bus Lane,2020-03-16,2020-04-03,False,True,True,False,True,False,False,False,7:30 AM,8:00 AM,11:00 AM,12:00 PM,,,"La Vernia Independent School District, TX, USA",29.3797764,-98.1120116,La Vernia Independent School District,f282788a39608b140fe4b12835f29819b0016ebe
Leander ISD,https://news.leanderisd.org/leander-isd-to-suspend-normal-school-operations-for-2-weeks-through-april-5/?fbclid=IwAR26eLXvdRc2af7DzkFlwHCoidQhS3okWhgFSb9mB0OSUjz0faugwYBQDRE,Details: We will provide free,False,"Bagdad Elementary School, Reed Elementary School, River Place Elementary School, and Running Brushy Middle School",2020-03-16,2020-04-03,False,True,True,False,True,False,False,False,7:30 AM,9:00 AM,12:00 PM,1:30 PM,,,"Leander Independent School District, TX, USA",30.5416653,-97.8939317,Leander Independent School District,dfd668281d2a096b5f20f2eec28d4262322a1db5
Leonard ISD,https://www.leonardisd.net/,Details: Leonard ISD Child Nutrition Department will be offering FREE Sack Lunch Meals FREE to all kids,False,Elementary School,2020-03-16,2020-04-03,False,False,True,False,True,False,False,False,,,,,,,"Leonard Independent School District, TX, USA",33.3821849,-96.2482149,Leonard Independent School District,7016e6ba24a151b754128cc8e2482df712bb5053
Leveretts Chapel ISD,https://www.leverettschapelisd.net/,,False,,2020-03-16,2020-03-20,False,False,False,False,False,False,False,False,,,,,,,"Leverett's Chapel Independent School District, TX, USA",32.3345019,-94.90913289999999,Leverett's Chapel Independent School District,f001d5c6b72490933a558bee82d32f4767f303d5
Lewisville ISD,https://www.google.com/maps/d/u/0/viewer?ll=33.114803407080096%2C-97.03214127612307&z=12&mid=12kXyIkumC2AnfvbfkSJ5y__MHPfT_E8s,Details: Free drive-up grab,False,"Mill Street Elementary, Southridge Elementary, Peters Colony Elementary, Lewisville High School, Vickery Elementary, DeLay Middle School, LISD STEM Academy at Polser, Huffines Middle School",2020-03-23,2020-04-03,False,True,True,False,True,False,False,False,7:30 AM,8:30 AM,11:00 AM,12:30 PM,,,"Lewisville Independent School District, TX, USA",33.0409218,-96.9853474,Lewisville Independent School District,d37c4387d683f3dfd3aa44baf2182f9882fcc185
Liberty - Eylau ISD,https://s3.amazonaws.com/scschoolfiles/736/covid-19_letter.pdf,,False,,2020-03-16,2020-03-20,False,False,False,False,False,False,False,False,,,,,,,"2901 Leopard Dr, Texarkana, TX 75501, United States",33.3927249,-94.0919681,Liberty-Eylau School District,aeeff6c27366510b0351348acddf37c54102c108
Liberty Hill ISD,,,False,,2020-03-16,2020-03-20,False,False,False,False,False,False,False,False,,,,,,,"Liberty Hill Independent School District, TX, USA",30.6761971,-97.9374948,Liberty Hill Independent School District,d52f1dd74a69fdccf2cd4f4a169c298a7bddb462
Liberty ISD,https://www.libertyhill.txed.net/site/default.aspx?PageType=3&DomainID=4&ModuleInstanceID=60&ViewID=6446EE88-D30C-497E-9316-3F8874B3E108&RenderLoc=0&FlexDataID=4718&PageID=1,Details: Meal pickup will be at the bus drop-off lane on the west side of the school.,False,Liberty Middle School,2020-03-16,2020-03-20,False,False,True,False,True,False,False,False,10:00 AM,1:00 PM,,,,,"Liberty Independent School District, TX, USA",30.0265679,-94.7691586,Liberty Independent School District,1b3785f0fe19878bf9bbda4f657b7fd908749f28
Lindale ISD,https://fbc7e898-3f1e-430c-aa81-678d417f5016.filesusr.com/ugd/8f47a8_d2b180cd4f8c40ad8aed64a260f88605.pdf,,False,,2020-03-16,2020-03-20,False,False,False,False,False,False,False,False,,,,,,,"Lindale Independent School District, TX, USA",32.5322452,-95.4568133,Lindale Independent School District,185c7984fe56f8e6bb940de301a3fe61dbe8ba93
Linden - Kildare,https://www.lkcisd.net/264247_2,Details: We will run a trial meal plan on Tuesday,False,Junior High Campus,2020-03-16,2020-03-20,False,True,True,False,False,True,False,False,7:30 AM,9:00 AM,11:00 AM,1:00 PM,,,"Linden-Kildare Consolidated Independent School District, TX, USA",32.9581555,-94.35651299999999,Linden-Kildare Consolidated Independent School District,f16ec8500ea9effa0d5972a9f61234fe20107590
Livingston ISD,,Details: Meals will be offered through the Cedar Grove Elementary car rider line for all district students.,False,Cedar Grove Elementary,2020-03-16,2020-03-20,False,True,True,False,True,False,False,False,7:00 AM,8:00 AM,11:00 AM,1:00 PM,,,"Livingston Independent School District, TX, USA",30.7341488,-94.9143239,Livingston Independent School District,b6d1392f488fd58028eda8cc7baad5d717ec035e
Lockhart ISD,"http://lockhartisd.org/UserFiles/Servers/Server_89742/File/News/Message%20from%20the%20Superintendent%20_%20March%2016,%202020.pdf?fbclid=IwAR0y30oH7V86tHC0MYQoZHLhvaT-yAM80oYj89zLA06CO1QTvB3-OrDHUhs",Details: Simply drive up to the pickup site and child nutrition staff will hand you meals through the car window. For those who do not drive and need to walk to pick up the meal,False,Each school campus in the district,2020-03-16,2020-04-03,False,True,True,False,True,False,False,True,7:30 AM,8:30 AM,11:00 AM,1:00 PM,,,"Lockhart Independent School District, TX, USA",29.8906464,-97.654811,Lockhart Independent School District,c9de14a290c03b868eaf80ce3933090a5a51d57e
Longview ISD,http://w3.lisd.org/,Details: Any child that attends LISD and comes to these campuses will be given two meals. All students will need to present their ID number when they pick up meals and this will happen in the back of the campus,False,"Longview High School, Forest Park Middle School, South Ward, Ware, Foster Middle School, Bramlette STEAM Academy, J.L. Everhart and Judson STEAM Academy.",2020-03-16,2020-03-27,False,True,True,False,False,True,False,True,10:00 AM,12:00 PM,,,,,"Longview Independent School District, TX, USA",32.5609303,-94.7484518,Longview Independent School District,b757d090294755886233c72a72651791d0fd7713
Lorena ISD,https://docs.google.com/forms/d/e/1FAIpQLSf_K1WuhWeXNO7tOWCal2NgSGai_q8a_hJqg-Y9_cq__vzFXQ/viewform,,False,Primary School campus,2020-03-16,2020-03-27,False,True,True,False,True,False,False,False,9:00 AM,11:30 AM,,,,,"Lorena Independent School District, TX, USA",31.4009371,-97.24371049999999,Lorena Independent School District,589113992bc2722342e6d2b62d6eeff988bc9995
Lovejoy ISD,,,False,,2020-03-16,2020-03-20,False,False,False,False,False,False,False,False,,,,,,,"Lovejoy Independent School District, TX, USA",33.0960961,-96.5890166,Lovejoy Independent School District,32121e446549983ad750da30bb1282a98224f646
Lufkin ISD,https://www.lufkinisd.org/category/lufkin-isd/,Details: Meals will be served through pick-up only. Students age,False,"Lufkin High School, Brandon Elementary or Slack Elementary",2020-03-16,2020-03-20,False,True,True,False,False,True,False,False,7:30 AM,9:30 AM,11:30 AM,1:30 AM,,,"Lufkin Independent School District, TX, USA",31.314639,-94.6863782,Lufkin Independent School District,2e31283d3f59921b93be5e2db4c014af01630599
Lytle ISD,https://www.lytleisd.org/,Details: Both breakfast and lunch meals are provided once daily. For the safety of all,False,"Primary,  Elementary, Junior High or High Schools",2020-03-16,2020-03-20,False,True,True,False,True,False,False,False,11:00 AM,1:00 PM,,,,,"Lytle Independent School District, TX, USA",29.1997185,-98.770147,Lytle Independent School District,020c0230109b362a171f9e46afd1cd93b0a3bc92
Magnolia ISD,https://www.magnoliaisd.org/apps/news/article/1184405?fbclid=IwAR3TPhH1OjBLqOwXxz2GzM3S5lepnWcrbpL-n4kFAwqjZFemLITo_L-6XmI,,True,Magnolia Elementary School,2020-03-16,2020-03-20,False,True,True,False,True,False,False,False,9:00 AM,11:00 AM,,,,,"Magnolia Independent School District, TX, USA",30.1964892,-95.70892409999999,Magnolia Independent School District,ea7b0770185e6c2030095770e3287a53011c151d
Malakof ISD,https://www.malakoffisd.org/,,False,,2020-03-16,2020-03-20,False,False,False,False,False,False,False,False,,,,,,,"Malakoff Independent School District, TX, USA",32.1891355,-96.0467429,Malakoff Independent School District,08998f596becee1926adf7ee9e1f027c60b1eef2
Malone ISD,https://www.maloneisd.org/34074?articleID=50400,,False,,2020-03-16,2020-03-20,False,False,False,False,False,False,False,False,,,,,,,"202 W Hackberry St, Malone, TX 76660, United States",31.9198121,-96.8953614,Malone ISD,cc7c90b554964d2a4bc3eaf8c40db6719ecb0155
Manor ISD,https://www.facebook.com/manorisd/,Details: Curbside lunch meals will be provided for each child in the vehicle. Families are advised to stay in their cars and not enter buildings during meal pick up. Meals will be provided Monday through Friday starting on March,False,"Manor New Tech High School, Blake Manor Elementary and Decker Elementary",2020-03-16,2020-03-27,False,False,True,False,True,False,False,False,11:00 AM,12:30 PM,,,,,"Manor Independent School District, TX, USA",30.3332225,-97.54638849999999,Manor Independent School District,bec6d67eff49fe1752f1834dccea1d0dd7f52498
Mansfield ISD,https://resources.finalsite.net/images/v1584154338/mansfieldisd/usshuxy5mxizmg4eqfau/MISDCoronavirusClosureDetails-March13.pdf,Details: Free healthy,True,"Glenn Harmon Elementary School, D.P. Morris Elementary School, Annette Perry Elementary School, Mary Jo Sheppard Elementary School, Della Icenhower Intermediate School, Danny Jones Middle School",2020-03-16,2020-04-03,False,False,True,False,True,False,False,False,11:00 AM,12:00 PM,,,,,"Mansfield Independent School District, TX, USA",32.5821586,-97.1574784,Mansfield Independent School District,52418f84b551e44df539f09a8d67619255d1e9e2
Marlin ISD,https://www.marlinisd.org/,,False,,2020-03-16,2020-03-20,False,False,False,False,False,False,True,False,,,,,,,"Marlin Independent School District, TX, USA",31.3118535,-96.79223549999999,Marlin Independent School District,34de388323cfebeb17521ebe35cbd5a5421bf115
Marion ISD,http://www.marionisd.net/,,False,,2020-03-16,2020-03-20,False,False,False,False,False,False,False,False,,,,,,,"506 Bulldog Ln, Marion, TX 78124, United States",29.5671806,-98.1412795,Marion High School,9fa8578672bea4067e04f3e9fb734cee085b24da
Marion ISD,http://www.marionisd.net/,,False,,2020-03-16,2020-03-20,False,False,False,False,False,False,False,False,,,,,,,"Marion Independent School District, TX, USA",29.564169,-98.1120116,Marion Independent School District,d6bd06d0a28202a40be6ef1ad07a6e602c55a311
Marshall ISD,https://www.marshallisd.com/news/district_news/district_closed,,False,,2020-03-16,2020-03-20,False,False,False,False,False,False,False,False,,,,,,,"1305 E Pinecrest Dr, Marshall, TX 75670, United States",32.5280414,-94.35328469999999,Marshall Independent School District,78d81468662c588feafc78a55b5f8294d3da379b
Martinsville ISD,http://www.martinsvilleisd.com/,,False,,2020-03-16,2020-03-20,False,False,False,False,False,False,False,False,,,,,,,"Martinsville Independent School District, TX, USA",31.664675,-94.4593791,Martinsville Independent School District,39369b5a10958ede3558105199915b28cf378683
Mason  ISD,http://www.masonisd.net,,False,,2020-03-16,2020-03-20,False,False,False,False,False,False,False,False,,,,,,,"911 E College Ave, Mason, TX 76856, United States",30.7439479,-99.23502049999999,Mason Independent School District,bc545962f09e381905e92f4dcf738dbf2abf85d9
Matagorda ISD,,,False,,2020-03-16,2020-03-20,False,False,False,False,False,False,True,False,,,,,,,"717 Wightman St, Matagorda, TX 77457, United States",28.6929874,-95.9696544,Matagorda Elementary School,3ec47172ebcdfb7b582a27fc531bbb3ab425f83c
May ISD,http://www.mayisd.com,,False,,2020-03-16,2020-03-20,False,False,False,False,False,False,False,False,,,,,,,"3400 Co Rd 411, May, TX 76857, United States",31.9788432,-98.9232703,May Independent School District,8d0c66828f3406d31c8d6c844c0649afec45aedc
McAllen ISD,https://www.mcallenisd.org/apps/pages/coronavirus,Details: MEALS,False,All District School Campuses,2020-03-16,2020-04-03,False,True,True,False,True,False,False,False,11:30 AM,12:30 PM,,,,,"McAllen Independent School District, TX, USA",26.2064888,-98.2431747,McAllen Independent School District,da2b8bc9ebff32eb8506967229518a53a6f25dab
McCamey ISD,http://www.mcisd.esc18.net,Details: Meals will be available for children ages,True,McCamey Primary Driveway,2020-03-16,2020-03-20,False,True,True,False,True,False,False,False,9:00 AM,10:00 AM,11:00 AM,12:30 PM,,,"111 E 11th St, McCamey, TX 79752, United States",31.12814479999999,-102.2202207,Mc Camey Independent School District,a9c59afb932dab1aa14e9983682a1f7efd455aaa
McDade ISD,https://www.smithvilleisd.org/apps/pages/index.jsp?uREC_ID=186536&type=d&pREC_ID=1844358,,False,,2020-03-16,2020-04-05,False,False,False,False,False,False,False,False,,,,,,,"156 Marlin St, McDade, TX 78650, United States",30.2830711,-97.2401656,McDade Independent School District,4cf3672757a78a49bd4debd3a796bac9d87bab60
McGregor ISD,,,False,,2020-03-16,2020-03-27,False,False,False,False,False,False,False,False,,,,,,,"McGregor Independent School District, TX, USA",31.4365159,-97.4165053,McGregor Independent School District,0f0e6f863c7183f6e52970ec06d184364964571c
McKinney ISD,https://www.mckinneyisd.net/health-services-wellness/coronavirus-covid-19/,Details: Meals will be handed out in the front driveways of these schools. Free for any MISD student.,False,"Webb, Finch, McNeil, Slaughter, Vega Elementary and Malvern Elementary",2020-03-16,2020-04-03,False,True,True,False,True,False,False,False,7:30 AM,8:30 AM,11:00 AM,12:30 PM,,,"McKinney Independent School District, TX, USA",33.1962954,-96.59969629999999,McKinney Independent School District,53cc2bd1c3cc43e1c592620345ed9deb73a8ad7a
McLeod ISD,http://www.mcleodisd.net/sites/mcleodisd.net/files/schoolclosuremarch1620.pdf,Details:. If you wish to pick up a meal,False,Not Specified,2020-03-16,2020-03-20,False,True,True,False,True,False,False,False,7:30 AM,9:30 AM,11:00 AM,1:00 PM,,,"McLeod Independent School District, TX, USA",32.9330593,-94.100217,McLeod Independent School District,5d252b1ed1e196797bee3e1df1f5c97cdab02b9a
Meadowland Charter Districts,https://meadowlanddistrict.org/,,False,,2020-03-16,2020-03-20,False,False,False,False,False,False,False,False,,,,,,,"121 Old San Antonio Rd, Boerne, TX 78006, United States",29.7660032,-98.7095198,Meadowland Charter School,aaf900c310d7227f553775ae9a9f8bed6000d12a
Medina ISD,https://www.medinaisd.org/29830_1,,False,,2020-03-16,2020-03-20,False,False,False,False,False,False,False,False,,,,,,,"Medina Independent School District, TX, USA",29.7831879,-99.32292129999999,Medina Independent School District,5a494f1c6369ab1b5c796a48df5ed2501a451803
Medina Valley ISD,https://www.mvisd.com/site/default.aspx?PageType=3&DomainID=2888&ModuleInstanceID=9305&ViewID=6446EE88-D30C-497E-9316-3F8874B3E108&RenderLoc=0&FlexDataID=19542&PageID=5793,Details:.,False,MVHS,2020-03-16,2020-03-20,False,True,True,False,True,False,False,False,7:30 AM,8:30 AM,11:00 AM,12:30 PM,,,"Medina Valley Independent School District, TX, USA",29.44588469999999,-98.88039250000001,Medina Valley Independent School District,32fb9390c369bb19b82995666f8aa6a96acf2a11
Melissa ISD,,,False,,2020-03-16,2020-03-20,False,False,False,False,False,False,False,False,,,,,,,"Melissa Independent School District, TX, USA",33.2774174,-96.5463156,Melissa Independent School District,673e5131f5ebada238ef826c127d2837aec65109
Menard ISD,http://www.menardisd.net,Details:. Free meal pick up for MISD students every weekday. Call,False,Elementary and Junior High,2020-03-16,2020-03-20,False,False,True,False,False,True,False,False,,,,,,,"Menard Independent School District, TX, USA",30.9313882,-99.85714159999999,Menard Independent School District,cec3a049350f2b97c5d392cdfe9647f609b709a7
Merkel ISD,https://www.merkelisd.net,Details:. You will drive through the drop off lanes,False,Elementary Building,2020-03-16,2020-03-20,False,True,True,False,True,False,False,False,7:45 AM,8:30 AM,11:30 AM,12:30 PM,,,"Merkel Independent School District, TX, USA",32.4593713,-99.9465077,Merkel Independent School District,d6f2c8111ea12ae4a4021ec2442ec9afb14a7693
Mesquite ISD,https://www.mesquiteisd.org/community/coronavirus-information-and-updates?fbclid=IwAR3kabQDu3cszVCs_srBkSx32vkvZra3g6ZgdyxobMi0wcTvPaMLczCBSGo,Details: Mesquite ISD will provide FREE curbside meals to all Mesquite ISD students while schools are closed. Lunch,False,All Mesquite ISD High Schools,2020-03-16,2020-04-03,False,True,True,False,True,False,False,False,10:00 AM,12:00 PM,,,,,"Mesquite Independent School District, TX, USA",32.7476739,-96.59969629999999,Mesquite Independent School District,8a722c59cab045c83aabe19be787cff8767b59f2
Mexia ISD,https://www.mexiaisd.net/article/210925?org=mexia-independent-school-district,Details:. Meals will be available for all students,False,R.Q. Sims Intermediate Canopy Line,2020-03-16,2020-03-27,False,False,True,False,True,False,False,False,11:00 AM,1:00 PM,,,,,"Mexia Independent School District, TX, USA",31.667419,-96.5143087,Mexia Independent School District,4399430bd97d5fbf07defe62c3653ef718359da5
Midland ISD,http://www.midlandisd.net,Details: Any child,False,Elementary Schools,2020-03-16,2020-03-27,False,True,True,False,True,False,False,False,7:30 AM,8:30 AM,11:30 AM,12:30 PM,,,"615 W Missouri Ave, Midland, TX 79701, United States",31.9960416,-102.0814251,Midland Independent School District,b3a16d8c7a2cd52576bb11f12197c08508c0ec59
Midway ISD,https://www.midwayisd.org/coronavirus,Details: USDA requires children to be present when picking up the food to prove the number of children you have,True,"Castleman Creek Elementary, Hewitt Elementary, Speegleville Elementary",2020-03-16,2020-03-27,False,True,True,False,True,False,False,False,8:00 AM,9:00 AM,11:00 AM,12:00 PM,,,"Midway Independent School District, TX, USA",31.5013849,-97.27607599999999,Midway Independent School District,6258f98dc496b2a357d5037e6dd3e1eac6e199f7
Milano ISD,http://www.mumford.k12.tx.us/,,False,,2020-03-16,2020-03-20,False,False,False,False,False,False,False,False,,,,,,,"500 N 5th St, Milano, TX 76556, United States",30.71134129999999,-96.8664321,MILANO INDEPENDENT SCHOOL DISTRICT,9b3f1db55a0c0b56c79018f08463f8734103ab07
Miles ISD,http://www.milesisd.net,,False,,2020-03-16,2020-03-20,False,False,False,False,False,False,False,False,,,,,,,"1001 Robinson St, Miles, TX 76861, United States",31.6049515,-100.1856325,Miles Independent School District,a1fc06df93880d6edf26201a881f5ede9d4edeb9
Miller Grove ISD,https://www.mgisd.net/2020/03/press-release-mgisd-will-be-providing-meals-during-extended-break-for-mgisd-students/,Details: MGISD wants to do what we can to make sure that our students are getting breakfast and lunch during the week. We are offering this service to ALL students in the Miller Grove District.,False,Elementary Parking lot by the Cafeteria OR Delivered by Bus,2020-03-16,2020-03-20,False,False,False,False,False,True,False,False,9:30 AM,11:00 AM,,,,,"Cumby, TX 75433, United States",33.0216138,-95.80214380000001,Miller Grove School,3443b07ec59b28e2650bb670593bd38c293210ff
Mineola ISD,http://www.mineolaisd.net/,,False,,2020-03-16,2020-03-20,False,False,False,False,False,False,False,False,,,,,,,"Mineola Independent School District, TX, USA",32.6675165,-95.4568133,Mineola Independent School District,10562781a8eae647ebffaf9ea7bedfe3a20277ab
Montgomery ISD,,,False,,2020-03-12,2020-03-13,False,False,False,False,False,False,False,False,,,,,,,"Montgomery Independent School District, TX, USA",30.4502629,-95.68787359999999,Montgomery Independent School District,efc0b8abbd6866f5414a9bb3a10309b67c5e2f71
Moody ISD,,,False,,2020-03-16,2020-03-20,False,False,False,False,False,False,False,False,,,,,,,"Moody Independent School District, TX, USA",31.2785653,-97.394882,Moody Independent School District,0e64fd0e381ea049b263624652113a8bcacd1124
Mount Enterprise ISD,http://www.meisd.org/,,False,,2020-03-16,2020-03-20,False,False,False,False,False,False,False,False,,,,,,,"301 NW 3rd St, Mt Enterprise, TX 75681, United States",31.92106339999999,-94.6867305,Mount Enterprise ISD,6f2fd5ddbe57bd5ec72fee18269d6ed4d27d38fd
Mumford ISD,http://www.mumford.k12.tx.us/,,False,,2020-03-16,2020-03-20,False,False,False,False,False,False,False,False,,,,,,,"Mumford Independent School District, TX, USA",30.7532897,-96.55698819999999,Mumford Independent School District,9062d1d9eb173f6374b5ee79551593e6fc692932
Nacogdoches ISD,http://www.nacisd.org/news/what_s_new/n_i_s_d_offering_students_free_lunches,Details: Students age,False,Brooks,2020-03-16,2020-03-20,False,True,True,False,True,False,False,False,10:30 AM,12:00 PM,,,,,"Nacogdoches Independent School District, TX, USA",31.6117873,-94.6657027,Nacogdoches Independent School District,095b536515f9a77a5a32f6247319b3518cac69ef
Natalia ISD,https://www.nataliaisd.net/,Details: Breakfast and Lunch kits will be provided to vehicles at the distribution sites. Kits will be one per Natalia ISD student. Each car will need to provide name and grade of each student.,False,"Jr High, Fire Department, Natalia ISD Transportation, Community Center Great Oaks, Mail Delivery turnaround at Forest Woods",2020-03-17,2020-03-20,False,True,True,False,True,False,False,False,10:00 AM,1:00 PM,,,,,"Natalia Independent School District, TX, USA",29.2046934,-98.86936089999999,Natalia Independent School District,6ef7074788d02597fec008e184dfcd2b7dff0c51
Needville ISD,,,False,,2020-03-16,2020-03-20,False,False,False,False,False,False,True,False,,,,,,,"Needville Independent School District, TX, USA",29.36202919999999,-95.7932008,Needville Independent School District,3b3495098a68f26636cc2808bb80c3be6f0d8aa8
New Caney ISD,https://www.newcaneyisd.org/site/default.aspx?PageType=3&DomainID=4&ModuleInstanceID=36&ViewID=6446EE88-D30C-497E-9316-3F8874B3E108&RenderLoc=0&FlexDataID=20120&PageID=1,Details:  No charge for children,False,New Caney Elementary School,2020-03-16,2020-04-17,False,True,True,False,True,False,False,False,8:30 AM,11:30 AM,,,,,"New Caney Independent School District, TX, USA",30.1236255,-95.2475518,New Caney Independent School District,6dd6df0055294b5fcb51e180d56b31fa83ac2539
New Castle ISD,https://www.newcastleisd.net/,,False,,2020-03-16,2020-03-16,False,False,False,False,False,False,False,False,,,,,,,"505 Washington Ave, Newcastle, TX 76372, United States",33.1882656,-98.7378504,Newcastle High School,7b4465ae92ce73bee827cfb14c1fa5a5984a83c8
New Diana,http://www.ndisd.org/,,False,,2020-03-16,2020-03-20,False,False,False,False,False,False,False,False,,,,,,,"Diana, TX 75640, USA",32.7098612,-94.75215419999999,Diana,a37b7e44e4aed67aa9d77a64d83e932c4398e007
New Summerfield ISD,https://www.newsummerfieldisd.org/,,False,,2020-03-16,2020-03-20,False,False,False,False,False,False,False,False,,,,,,,"13307 TX-110, Jacksonville, TX 75766, United States",31.9789983,-95.09509349999999,New Summerfield ISD,62d97c687cf68016c54971d5bd09849751a00a7e
New Waverly ISD,https://www.new-waverly.k12.tx.us/,,False,New Waverly Elementary,2020-03-16,2020-03-20,False,True,True,False,True,False,False,False,7:30 AM,8:30 AM,11:00 AM,1:00 PM,,,"355 E Front St, New Waverly, TX 77358, United States",30.537884,-95.4816429,New Waverly ISD,5db9b50df754a569882ad7ac5b1aaef6f71736f4
North East ISD,,,False,,2020-03-09,2020-03-23,False,False,False,False,False,False,False,False,,,,,,,"North East Independent School District, TX, USA",29.5883182,-98.46229869999999,North East Independent School District,270ce4efaae2c58492fb24bfe43e40e0042162bd
North Hopkins ISD,https://www.northhopkins.net/18323?articleID=50305,,False,,2020-03-16,2020-03-20,False,False,False,False,False,False,False,False,,,,,,,"North Hopkins Independent School District, TX 75482, USA",33.288929,-95.62476699999999,North Hopkins Independent School District,bca008f80ec1a579f222dce40486eb343858f943
Northside ISD,,,False,,2020-03-16,2020-03-20,False,False,False,False,False,False,False,False,,,,,,,"Northside Independent School District, TX, USA",29.5496408,-98.70407499999999,Northside Independent School District,6bd07691787795404087146ecf381eeab80f6c35
Nueces Canyon ISD,https://www.nccisd.net,Details: Please call,False,NC Elementary,2020-03-16,2020-03-20,False,True,True,False,True,False,False,False,8:00 AM,9:00 AM,11:00 AM,12:30 PM,,,"Nueces Canyon Consolidated Independent School District, TX, USA",29.7239287,-100.1255164,Nueces Canyon Consolidated Independent School District,7610ed8f650cf639cf722610ad0f59e6dc039921
Northwest ISD,https://www.nisdtx.org/cms/One.aspx?portalId=232201&pageId=23602050,Details: During the extended break,False,"Curits Elementary, Jusitn Elementary, Love Elementary, Love Elementary, Sendera Ranch Elementary, Chisholm Trail Middle School, TIdwell Middle School",2020-03-16,2020-04-03,False,True,True,False,True,False,False,False,10:00 AM,1:00 PM,,,,,"Northwest Independent School District, TX, USA",32.994914,-97.394882,Northwest Independent School District,7434a8f986226d0fce1632705397d46db992aad0
Oakwood ISD,https://www.oakwoodisd.net/article/208879?org=oakwood,,False,,2020-03-16,2020-03-20,False,False,False,False,False,False,False,False,,,,,,,"631 N Holly St, Oakwood, TX 75855, United States",31.58746679999999,-95.85357619999999,Oakwood ISD,dc6bfc3e88bb89ab9b62f4d2c55e014fb314416f
Oakwood ISD,https://www.oakwoodisd.net/article/208879?org=oakwood,,False,,2020-03-16,2020-03-20,False,False,False,False,False,False,False,False,,,,,,,"Oakwood Independent School District, TX, USA",31.5183127,-95.8353837,Oakwood Independent School District,c7eb591bb7cbd2d6482f019ebf0b4c0709b39f19
Ogelsby ISD,,,False,,2020-03-16,2020-03-20,False,False,False,False,False,False,False,False,,,,,,,"Oglesby Independent School District, TX, USA",31.4289262,-97.54638849999999,Oglesby Independent School District,fbe2be2f140207e385d2778a7c768b63df5729dc
Ore City ISD,https://www.ocisd.net/,,False,,2020-03-16,2020-03-20,False,False,False,False,False,False,False,False,,,,,,,"Ore City Independent School District, TX, USA",32.8314196,-94.7484518,Ore City Independent School District,00f626f849432fc4461819eea904110d5798808b
Overton ISD,http://www.overtonisd.net/,,False,,2020-03-16,2020-03-20,False,False,False,False,False,False,False,False,,,,,,,"Overton Independent School District, TX, USA",32.315309,-94.9662608,Overton Independent School District,8528d5704b673c46ef7c2c54e7c79fc267740239
Paint Rock ISD,http://www.paintrockisd.net,Details: This week,False,,2020-03-16,2020-03-27,False,True,True,False,False,True,False,False,,,,,,,"698 S Sims Ave, Paint Rock, TX 76866, United States",31.5039215,-99.9248435,Paint Rock Schools,016c75bcbf666680eabaf5c5910868f96ebae15a
Panther Creek ISD,https://www.pcreek.net,Details: Orders can be placed by,False,Not Specified,2020-03-16,2020-03-20,False,False,True,False,False,True,False,False,10:30 AM,11:30 AM,,,,,"Panther Creek Consolidated Independent School District, TX, USA",31.6768317,-99.58960429999999,Panther Creek Consolidated Independent School District,17c5d24fa626433b17c7302afb5a5f62a675a1ce
Paris ISD,https://www.parisisd.net/,,False,,2020-03-16,2020-03-20,False,False,False,False,False,False,False,False,,,,,,,"1920 Clarksville St, Paris, TX 75460, United States",33.6553043,-95.5360072,Paris Independent School District,a31c76602914a544b9028b6a064afdf8ab7b77cd
Pasadena ISD,https://www1.pasadenaisd.org/,,False,"J Frank Dobie High School, Sam Rayburn High School, Pasadena High School, South Houston High School, Pasadena Memorial High School",2020-03-16,2020-04-10,False,True,True,False,True,False,False,False,7:30 AM,8:30 AM,11:00 AM,12:30 PM,,,"Pasadena Independent School District, TX, USA",29.6638146,-95.2057909,Pasadena Independent School District,5c701a9f7747d557195feaec8252f5a599f59214
Pearland ISD,https://www.pearlandisd.org/,Details:  On Mondays,False,"Carleston Elementary, Lawhon Elementary, PACE Center",2020-03-16,2020-04-10,False,True,True,False,True,False,False,False,11:00 AM,12:30 PM,,,,,"Pearland Independent School District, TX, USA",29.5680437,-95.2893433,Pearland Independent School District,8922d57d486497b82df5963a9d3574a0b5f9f77c
Perrin-Whitt ISD,https://s3.amazonaws.com/scschoolfiles/1509/covid19.pdf ,,False,,2020-03-16,2020-03-20,False,False,False,False,False,False,False,False,,,,,,,"216 North Benson, Perrin, TX 76486, United States",33.0340458,-98.0694323,Perrin-Whitt Consolidated Independent School District,88d1fdecb7b59ec6e817af8ec7a7bf3d1635e10b
Pflugerville ISD,http://www.pfisd.net/site/Default.aspx?PageID=7656,,False,,2020-03-16,2020-03-27,False,False,False,False,False,False,False,False,,,,,,,"Pflugerville Independent School District, TX, USA",30.4681943,-97.5897372,Pflugerville Independent School District,a6d2a47f591c6f8dd2c62436264d4d45ea74c500
Pine Tree ISD,http://www.ptisd.org/,,False,,2020-03-16,2020-03-27,False,False,False,False,False,False,False,False,,,,,,,"Pine Tree Independent School District, TX, USA",32.502529,-94.8002333,Pine Tree Independent School District,fc1510ced17b00b5dd034c607898d698c9fc4483
Pittsburg ISD,https://www.pittsburgisd.net/,Details: Pickup at the High School,False,High School cafeteria or the Elementary,2020-03-16,2020-03-20,False,True,True,False,True,False,False,False,8:00 AM,9:00 AM,11:00 AM,12:30 PM,,,"Pittsburg Independent School District, TX, USA",32.9583569,-94.9558696,Pittsburg Independent School District,9873321c158ae233e536bb8a4d84d0f9b779d3ae
Plano ISD,https://www.pisd.edu/Page/22423,Details:Plano ISD is currently providing free grab-and-go breakfast and lunch meals at several locations across the district. Armstrong Middle School,False,"Armstrong Middle School, Daffron, Huffman, Meadows, Haggar, Sigler, and Thomas Elementaries.",2020-03-16,2020-04-03,False,True,True,False,True,False,False,False,7:30 AM,8:30 AM,11:00 AM,12:30 PM,,,"Plano Independent School District, TX, USA",33.0550676,-96.7279918,Plano Independent School District,70f8f9c851b3bfb2c2086396accc8080c3962e25
Pleasonton ISD,https://www.pisd.us/apps/pages/index.jsp?uREC_ID=1694901&type=d&pREC_ID=1854518,Details: Curbside Student Meals will be provided at Pleasanton Junior High Campus Only,False,Pleasanton Junior High,2020-03-16,2020-03-20,False,True,True,False,True,False,False,False,8:30 AM,10:00 AM,12:00 PM,1:30 PM,,,"Pleasanton Independent School District, TX, USA",28.92618629999999,-98.352656,Pleasanton Independent School District,927a5b711515ada13680c3ea00248257af658e65
Poth ISD,https://www.pothisd.us/,Details: This will be a drive by pick up. Children must,False,Front of Poth ISD Cafeteria,2020-03-16,2020-03-20,False,True,True,False,True,False,False,False,8:00 AM,9:00 AM,11:00 AM,12:30 PM,,,"510 Titcomb, Poth, TX 78147, United States",29.0745417,-98.0830438,Poth Independent School District,71aacb74cc6aadd12cae048ae3b4b8f1df53284f
Port Arthur ISD,,,False,,2020-03-01,2021-03-01,True,False,False,False,False,False,True,False,,,,,,,"Port Arthur Independent School District, TX, USA",29.8927095,-93.9266502,Port Arthur Independent School District,520420c51f2931af4ff0059c0e6601185c9de3a0
Poteet ISD,http://ww1.poteetisd.org/district/,Details: Children under the age of,False,IMS Pickup,2020-03-17,2020-03-20,False,False,False,False,True,False,False,False,9:00 AM,1:00 PM,,,,,"Poteet Independent School District, TX, USA",29.0670092,-98.68206359999999,Poteet Independent School District,575885993e34bf79d20f6049e7117f5ee4f355a0
Prairieland ISD,https://www.prairiland.net/,,False,,2020-03-16,2020-03-20,False,False,False,False,False,False,False,False,,,,,,,"Prairiland Independent School District, TX, USA",33.4575584,-95.35208759999999,Prairiland Independent School District,2ceeb13b47a0ae9fca368b4cf4d3deb9924823e0
Princeton ISD,,,False,,2020-03-16,2020-03-20,False,False,False,False,False,False,False,False,,,,,,,"Princeton Independent School District, TX, USA",33.1464892,-96.48231799999999,Princeton Independent School District,31cfa431abb060f82ec567591e0e10204b08b976
Pro-Vision Academy School,,,False,,2020-03-13,2020-03-30,False,False,False,False,False,False,False,False,,,,,,,"11503 Martin Luther King Blvd, Houston, TX 77048, United States",29.6348001,-95.3388853,Pro Vision Academy,1f016a970e2fe91f3b430caf99648a3a449cd3d1
Prosper ISD,,,False,,2020-03-16,2020-03-20,False,False,False,False,False,False,False,False,,,,,,,"Prosper Independent School District, TX, USA",33.2318514,-96.7708138,Prosper Independent School District,b73b0d876090a74992fd7a61903094afab216b72
Rains ISD,https://www.rainsisd.org/14134_1,,False,,2020-03-16,2020-03-20,False,False,False,False,False,False,False,False,,,,,,,"Rains Independent School District, TX, USA",32.9009129,-95.77212039999999,Rains Independent School District,b0a3092d157113406abe24412aaf7a2a7026eb28
Ranch Academy,https://www.raschools.com/,,False,,2020-03-16,2020-03-20,False,False,False,False,False,False,False,False,,,,,,,"3120 Co Rd 2318, Canton, TX 75103, United States",32.4231424,-95.8609041,Ranch Academy - Canton,be3902ef042829ab439cbc64a968302009f1ac47
Ranch Academy,https://www.raschools.com/,,False,,2020-03-16,2020-03-20,False,False,False,False,False,False,False,False,,,,,,,"2318 Vz County Rd 2201, Canton, TX 75103, United States",32.5310695,-95.87656659999999,The Ranch Academy,90e1753d592b6777289acc124a289ecb7d83dae4
Ranch Academy,https://www.raschools.com/,,False,,2020-03-16,2020-03-20,False,False,False,False,False,False,False,False,,,,,,,"2274 County Rd 203 Loop, Cameron, TX 76520, United States",30.8678798,-97.0311965,Resolution Ranch Academy,a7d6fbdad840f140e21e85136bff1a454bbae543
Rankin ISD,,,False,,2020-03-16,2020-03-20,False,False,True,False,False,True,False,False,,,,,,,"1201 Upton St, Rankin, TX 79778, United States",31.23116959999999,-101.9417193,Rankin Independent School District,897a94f4a725ccdb6c9826d8fed5657c92c47abd
Rice ISD,https://www.rice-isd.org/,Details: Students grades Pre-K through,False,IMS Pickup,2020-03-16,2020-03-20,False,True,True,False,False,True,False,False,10:00 AM,11:00 AM,,,,,"Rice Independent School District, TX, USA",32.2133375,-96.47165799999999,Rice Independent School District,9e7c6e77e40360de48d037a2e26abe3bbc3cdcc5
Richardson ISD,http://www.richardson.k12.tx.us/,,False,,2020-03-01,2021-03-01,True,False,False,False,False,False,True,False,,,,,,,"Richardson Independent School District, TX, USA",32.9205249,-96.7279918,Richardson Independent School District,485d63c267c490fca81b3df7281eac61147a9552
Richard Milburn Academy,https://www.rmaschools.org/students/services-and-resources/web-links/,,False,,2020-03-16,2020-03-20,False,False,False,False,False,False,False,False,,,,,,,"4106 SW 51st Ave, Amarillo, TX 79109, United States",35.1550392,-101.882697,Richard Milburn Academy - RMA Amarillo,e500420cee616829515610cb6f2e6e34a80e55e4
Richard Milburn Academy,https://www.rmaschools.org/students/services-and-resources/web-links/,,False,,2020-03-16,2020-03-20,False,False,False,False,False,False,False,False,,,,,,,"503 E I-20 Frontage Suite #110, Midland, TX 79701, United States",31.9757662,-102.0663221,Richard Milburn Academy - RMA Midland,634c35deb2b752963cfbeeef86299563d77d0cd7
Richard Milburn Academy,https://www.rmaschools.org/students/services-and-resources/web-links/,,False,,2020-03-16,2020-03-20,False,False,False,False,False,False,False,False,,,,,,,"2419 N County Rd W #100, Odessa, TX 79763, United States",31.8605555,-102.3967486,Richard Milburn Academy - RMA Odessa,3c34458d323f95a1082ae02e79c65b495f3b5552
Richard Milburn Academy,https://www.rmaschools.org/students/services-and-resources/web-links/,,False,,2020-03-16,2020-03-20,False,False,False,False,False,False,False,False,,,,,,,"713 E Airtex Dr, Houston, TX 77073, United States",29.984617,-95.4124353,Richard Milburn Academy - RMA Houston,80c04e3a165b24bdf8d8b008569ffc132fb33768
Richard Milburn Academy,https://www.rmaschools.org/students/services-and-resources/web-links/,,False,,2020-03-16,2020-03-20,False,False,False,False,False,False,False,False,,,,,,,"802 N 8th St, Killeen, TX 76541, United States",31.12444069999999,-97.72497419999999,Richard Milburn Academy - RMA Killeen,c105a539ee46940e17935e8f03b1293877ca043b
Richard Milburn Academy,https://www.rmaschools.org/students/services-and-resources/web-links/,,False,,2020-03-16,2020-03-20,False,False,False,False,False,False,False,False,,,,,,,"320 E Southmore Ave Suite #306, Pasadena, TX 77502, United States",29.6896875,-95.20842739999999,Richard Milburn Academy - RMA Pasadena,dfd8b91dbba2814195cb6346da10f8f958fc12f8
Richard Milburn Academy,https://www.rmaschools.org/students/services-and-resources/web-links/,,False,,2020-03-16,2020-03-20,False,False,False,False,False,False,False,False,,,,,,,"5333 Everhart Rd., Bldg. C, Corpus Christi, TX 78411, United States",27.7104998,-97.3874969,Richard Milburn Academy- RMA Corpus Christi,b6c3f164b1e34438a61bcc3335f369097690558f
Richard Milburn Academy,https://www.rmaschools.org/students/services-and-resources/web-links/,,False,,2020-03-16,2020-03-20,False,False,False,False,False,False,False,False,,,,,,,"6785 Camp Bowie Blvd #200, Fort Worth, TX 76116, United States",32.7201568,-97.43450179999999,Richard Milburn Academy - RMA Fort Worth,6903eed7f538ee4d61655eee931a5c5413dc859d
Richard Milburn Academy,https://www.rmaschools.org/students/services-and-resources/web-links/,,False,,2020-03-16,2020-03-20,False,False,False,False,False,False,False,False,,,,,,,"13003 Jones Maltsberger Rd, San Antonio, TX 78247, United States",29.5598112,-98.4612915,Richard Milburn Academy - RMA Central Office,bc05dd145e4bf4beb8e434c766af0ad6287efe7a
Richard Milburn Academy,https://www.rmaschools.org/students/services-and-resources/web-links/,,False,,2020-03-16,2020-03-20,False,False,False,False,False,False,False,False,,,,,,,"2333 50th St, Lubbock, TX 79412, United States",33.5482889,-101.8685842,Richard Milburn Academy - RMA Lubbock,ac370bfbc2ee8004ee7710f503e7f656ac73d19c
Riesel ISD,https://www.rieselisd.org/site/default.aspx?PageType=3&DomainID=8&ModuleInstanceID=122&ViewID=6446EE88-D30C-497E-9316-3F8874B3E108&RenderLoc=0&FlexDataID=777&PageID=9,,False,,2020-03-16,2020-03-20,False,False,False,False,False,False,False,False,,,,,,,"Riesel Independent School District, TX, USA",31.4738845,-96.95312249999999,Riesel Independent School District,113aae2f8e9c566ca95eb9a0d2a3918b2c542d73
Robert Lee ISD,https://www.rlisd.net,,False,,2020-03-16,2020-03-20,False,False,False,False,False,False,False,False,,,,,,,"1323 Hamilton St, Robert Lee, TX 76945, United States",31.9013605,-100.4863796,Robert Lee High School,9ec9b59e5e72ac59eb0d6d244ab39d6edf2102b9
Rockdale ISD,,,False,,2020-03-16,2020-03-20,False,False,False,False,False,False,False,False,,,,,,,"Rockdale Independent School District, TX, USA",30.6828669,-97.0283383,Rockdale Independent School District,6042c6d5069538ce4d3936d1cb421f2cd0425cff
Rocksprings ISD,https://www.rockspringsisd.net,Details: Lunch pick up behind the cafeteria. If you live within the city limits,False,Not specified,2020-03-16,2020-03-20,False,False,True,False,True,False,False,False,,,,,,,"201 US-377, Rocksprings, TX 78880, United States",30.01813229999999,-100.2050101,Rocksprings High School,00087de69c9c738b994e54663c30c79bccac5c47
Rockwall ISD,https://www.facebook.com/pg/rockwallisd/posts/?ref=page_internal,Details: To help our students and families,True,Dobbs and Rochell,2020-03-16,2020-04-03,False,False,True,False,True,False,False,False,11:00 AM,1:00 PM,,,,,"Rockwall Independent School District, TX, USA",32.8678036,-96.4503434,Rockwall Independent School District,6dd252b8bfdec49a9031d0927d011ce3e9120128
Rogers ISD,https://www.rogersisd.org/apps/news/article/1186323,,False,,2020-03-16,2020-03-20,False,False,False,False,False,False,False,False,,,,,,,"Rogers Independent School District, TX, USA",30.9933203,-97.2005806,Rogers Independent School District,1f4ee63d154cd95cb00bce0aab4a5f3ede3072b2
Rosebud-Lott ISD,https://www.rlisd.org/apps/news/article/1184743,,False,,2020-03-16,2020-03-20,False,False,False,False,False,False,False,False,,,,,,,"Rosebud-Lott Independent School District, TX, USA",31.1203749,-96.9638624,Rosebud-Lott Independent School District,4f4a11d4da06907bbb57df2eab788aec87e31d8f
Round Rock ISD,https://roundrockisd.org/coronavirus/,Details: Meals will be provided Monday through Friday and children must be present to receive a meal. Meals will be distributed to children under the age of,False," Anderson Mill Elementary, Bluebonnet Elementary, Caldwell Heights Elementary, Callison Elementary, C.D. Fulkes Middle School, Double File Trail Elementary, Forest North Elementary, Hernandez Middle School, Joe Lee Johnson Elementary, Success High School, Union Hill Elementary,",2020-03-16,2020-04-03,False,True,True,False,False,True,False,False,8:00 AM,9:00 AM,11:00 AM,1:00 PM,,,"Round Rock Independent School District, TX, USA",30.5063348,-97.7199454,Round Rock Independent School District,35075835c6db7b4ae76f85aa97250b74899ae086
Royal ISD,https://www.royal-isd.net/article/211605?org=royal-isd,Details:  Can pick up breakfast and lunch in one trip. On Thursday breakfast and lunch will be provided for both Thursday and Friday. Closed on Friday. Student must be in vehicle to receive meal,False,Behind Royal High School,2020-03-16,2020-04-10,False,True,True,False,True,False,False,False,9:30 AM,12:30 PM,,,,,"Royal Independent School District, TX, USA",29.86088759999999,-96.0044121,Royal Independent School District,73e3eb2650653539ab6fcc2796adaafd83b1e82a
Royse City ISD,,,False,,2020-03-16,2020-03-20,False,False,False,False,False,False,False,False,,,,,,,"Royse City Independent School District, TX, USA",32.9427558,-96.30134319999999,Royse City Independent School District,89174933222c6350bc646a357e3978a8c4433f5e
Rusk ISD,https://www.ruskisd.net/,,False,,2020-03-16,2020-03-20,False,False,False,False,False,False,False,False,,,,,,,"Rusk Independent School District, TX, USA",31.845292,-95.1015225,Rusk Independent School District,15ad6d2d77795b8c154583392f5ecc9ef3c8c23a
S & S CISD,https://sscisd.net/apps/news/show_news.jsp?REC_ID=618855&id=0,Details: As we enter our,False,"Elementary, Middle School",2020-03-16,2020-04-03,False,True,True,False,False,True,False,False,11:00 AM,12:00 PM,11:00 AM,12:00 PM,,,"2482 Adam Clayton Powell Jr Blvd, New York, NY 10030, United States",40.82116509999999,-73.9397503,M & S Food,065f559ea39e492a93e16e4e4a86765898c8fa0b
S & S CISD,https://sscisd.net/apps/news/show_news.jsp?REC_ID=618855&id=0,Details: As we enter our,False,"Elementary, Middle School",2020-03-16,2020-04-03,False,True,True,False,False,True,False,False,11:00 AM,12:00 PM,11:00 AM,12:00 PM,,,"156 E 110th St, New York, NY 10029, United States",40.7945035,-73.9441107,D & S Produce Inc,40f50f4c052fa33f7685adb9dbee444b07d2a22f
S & S CISD,https://sscisd.net/apps/news/show_news.jsp?REC_ID=618855&id=0,Details: As we enter our,False,"Elementary, Middle School",2020-03-16,2020-04-03,False,True,True,False,False,True,False,False,11:00 AM,12:00 PM,11:00 AM,12:00 PM,,,"148 E 103rd St, New York, NY 10029, United States",40.7901511,-73.9475846,S & H Grocery Corporation,339a950e3cd6ca780e26b386f43da9c53a7ee63f
S & S CISD,https://sscisd.net/apps/news/show_news.jsp?REC_ID=618855&id=0,Details: As we enter our,False,"Elementary, Middle School",2020-03-16,2020-04-03,False,True,True,False,False,True,False,False,11:00 AM,12:00 PM,11:00 AM,12:00 PM,,,"880 River Ave # B, The Bronx, NY 10452, United States",40.828454,-73.9254007,S & A Sports,d9877a2d053576b5f4a7250c4fd572e2b6724739
S & S CISD,https://sscisd.net/apps/news/show_news.jsp?REC_ID=618855&id=0,Details: As we enter our,False,"Elementary, Middle School",2020-03-16,2020-04-03,False,True,True,False,False,True,False,False,11:00 AM,12:00 PM,11:00 AM,12:00 PM,,,"1994 3rd Ave, New York, NY 10029, United States",40.7939289,-73.94320019999999,I & S Pharmacy,e9a90fe66363ed48557984540b46ec992064467e
S & S CISD,https://sscisd.net/apps/news/show_news.jsp?REC_ID=618855&id=0,Details: As we enter our,False,"Elementary, Middle School",2020-03-16,2020-04-03,False,True,True,False,False,True,False,False,11:00 AM,12:00 PM,11:00 AM,12:00 PM,,,"2914 3rd Ave, The Bronx, NY 10455, United States",40.8172471,-73.9157039,S & A Stores Inc,beb4ac6eaa444de75907e0ff88a0035f0f975bc2
S & S CISD,https://sscisd.net/apps/news/show_news.jsp?REC_ID=618855&id=0,Details: As we enter our,False,"Elementary, Middle School",2020-03-16,2020-04-03,False,True,True,False,False,True,False,False,11:00 AM,12:00 PM,11:00 AM,12:00 PM,,,"608 E 133rd St, The Bronx, NY 10454, United States",40.8026282,-73.91843829999999,S & J Supply,0929002006a60ad113cee85d77d80cc47bdc32ae
S & S CISD,https://sscisd.net/apps/news/show_news.jsp?REC_ID=618855&id=0,Details: As we enter our,False,"Elementary, Middle School",2020-03-16,2020-04-03,False,True,True,False,False,True,False,False,11:00 AM,12:00 PM,11:00 AM,12:00 PM,,,"2033 3rd Ave, New York, NY 10029, United States",40.79501200000001,-73.94196,S & N Discount Inc,161bc59d52d1e4969cf6f69134d7e0ec8c01acc7
S & S CISD,https://sscisd.net/apps/news/show_news.jsp?REC_ID=618855&id=0,Details: As we enter our,False,"Elementary, Middle School",2020-03-16,2020-04-03,False,True,True,False,False,True,False,False,11:00 AM,12:00 PM,11:00 AM,12:00 PM,,,"154 W 131st St 3rd fl, New York, NY 10027, United States",40.812283,-73.945026,"Brian S Adjo, CPA",a9de01c53966146968af24a5e5234553f058cf22
S & S CISD,https://sscisd.net/apps/news/show_news.jsp?REC_ID=618855&id=0,Details: As we enter our,False,"Elementary, Middle School",2020-03-16,2020-04-03,False,True,True,False,False,True,False,False,11:00 AM,12:00 PM,11:00 AM,12:00 PM,,,"Astoria, NY 11102, United States",40.7714205,-73.9225951,S & K Convenient Mart Inc,3dad1fc534c462ee44c406a101f7b23a864cec4f
S & S CISD,https://sscisd.net/apps/news/show_news.jsp?REC_ID=618855&id=0,Details: As we enter our,False,"Elementary, Middle School",2020-03-16,2020-04-03,False,True,True,False,False,True,False,False,11:00 AM,12:00 PM,11:00 AM,12:00 PM,,,"248 W 106th St, New York, NY 10025, United States",40.8009196,-73.96737329999999,S & S Computing,33b1339381459abb16764811547281fc9102b781
S & S CISD,https://sscisd.net/apps/news/show_news.jsp?REC_ID=618855&id=0,Details: As we enter our,False,"Elementary, Middle School",2020-03-16,2020-04-03,False,True,True,False,False,True,False,False,11:00 AM,12:00 PM,11:00 AM,12:00 PM,,,"2336 1st Avenue, New York, NY 10035, United States",40.7984062,-73.933448,David ‘s Deli & Grill,0aad3d2298251e26ce733dae5cf3ece859d84e3d
S & S CISD,https://sscisd.net/apps/news/show_news.jsp?REC_ID=618855&id=0,Details: As we enter our,False,"Elementary, Middle School",2020-03-16,2020-04-03,False,True,True,False,False,True,False,False,11:00 AM,12:00 PM,11:00 AM,12:00 PM,,,"270 E 165th St, The Bronx, NY 10456, United States",40.8290402,-73.916027,S & P Mini Market Corp,0f8d8f187e3ba8d67d83f3c8f6ab2e5d23ad9fd9
S & S CISD,https://sscisd.net/apps/news/show_news.jsp?REC_ID=618855&id=0,Details: As we enter our,False,"Elementary, Middle School",2020-03-16,2020-04-03,False,True,True,False,False,True,False,False,11:00 AM,12:00 PM,11:00 AM,12:00 PM,,,"788 Amsterdam Ave, New York, NY 10025, United States",40.7957533,-73.9693562,C & S True Value Hardware,ce18c8bbfc19363fa5221f99457c8565f07d210c
S & S CISD,https://sscisd.net/apps/news/show_news.jsp?REC_ID=618855&id=0,Details: As we enter our,False,"Elementary, Middle School",2020-03-16,2020-04-03,False,True,True,False,False,True,False,False,11:00 AM,12:00 PM,11:00 AM,12:00 PM,,,"815 E 135th St, The Bronx, NY 10454, United States",40.801941,-73.9113989,S & S Soap Co,1b062282d7d7b8643a8e0f1b52e805b0245406dc
S & S CISD,https://sscisd.net/apps/news/show_news.jsp?REC_ID=618855&id=0,Details: As we enter our,False,"Elementary, Middle School",2020-03-16,2020-04-03,False,True,True,False,False,True,False,False,11:00 AM,12:00 PM,11:00 AM,12:00 PM,,,"2282 Broadway, New York, NY 10024, United States",40.78586,-73.978144,A & S Smoke Shop,e6761c3286ac91f66b007dba542a656fb1683693
S & S CISD,https://sscisd.net/apps/news/show_news.jsp?REC_ID=618855&id=0,Details: As we enter our,False,"Elementary, Middle School",2020-03-16,2020-04-03,False,True,True,False,False,True,False,False,11:00 AM,12:00 PM,11:00 AM,12:00 PM,,,"30th Dr, Astoria, NY 11102, United States",40.765691,-73.92643799999999,S & J GROCERY,bd78018d5c6fe04baef5812e2038a60ea1368bb1
S & S CISD,https://sscisd.net/apps/news/show_news.jsp?REC_ID=618855&id=0,Details: As we enter our,False,"Elementary, Middle School",2020-03-16,2020-04-03,False,True,True,False,False,True,False,False,11:00 AM,12:00 PM,11:00 AM,12:00 PM,,,"248 E 117th St #4815, New York, NY 10035, United States",40.7978057,-73.93782379999999,N & S Manhattan Live Poultry,304eb41797fb88a6e497a0eeeaa3441ebcf93755
S & S CISD,https://sscisd.net/apps/news/show_news.jsp?REC_ID=618855&id=0,Details: As we enter our,False,"Elementary, Middle School",2020-03-16,2020-04-03,False,True,True,False,False,True,False,False,11:00 AM,12:00 PM,11:00 AM,12:00 PM,,,"201 W 145th St, New York, NY 10039, United States",40.8219514,-73.9393307,S & D Tax Services LLC,37513d2ac52dc8b98c5e5a69c913621053605d68
S & S CISD,https://sscisd.net/apps/news/show_news.jsp?REC_ID=618855&id=0,Details: As we enter our,False,"Elementary, Middle School",2020-03-16,2020-04-03,False,True,True,False,False,True,False,False,11:00 AM,12:00 PM,11:00 AM,12:00 PM,,,"125 E 170th St, The Bronx, NY 10452, United States",40.8394693,-73.91514,S & A Stores Inc,9515b3b704d18e707473e9497b8e94e271c5ad0b
Sabinal ISD,https://www.sabinalisd.net/apps/news/article/1184838,,False,,2020-03-16,2020-03-20,False,False,False,False,False,False,False,False,,,,,,,"Sabinal Independent School District, TX, USA",29.4029449,-99.5006143,Sabinal Independent School District,51b93fbb6cbfc3f3f47d539c43a0074575ba0e39
Sabine ISD,https://www.sabineisd.org/site/default.aspx?PageType=3&DomainID=4&ModuleInstanceID=3199&ViewID=6446EE88-D30C-497E-9316-3F8874B3E108&RenderLoc=0&FlexDataID=4289&PageID=1,,False,,2020-03-16,2020-03-27,False,False,False,False,False,False,False,False,,,,,,,"Sabine Independent School District, TX, USA",32.429968,-94.9247074,Sabine Independent School District,9d0e35c3fe32f2f9a8f43c0acff9163dcd4d6749
Salado ISD,,,False,,2020-03-16,2020-03-20,False,False,False,False,False,False,False,False,,,,,,,"Salado Independent School District, TX, USA",30.9254007,-97.5897372,Salado Independent School District,93c3048f50c0d216da2b0082a4de0d6b1c025531
San Angelo ISD,https://www.saisd.org/5051,,False," Belaire Elementary, Bradford Elementary, Crockett Elementary, Goliad Elementary, Lee Middle School",2020-03-16,2020-03-20,False,True,True,False,True,False,False,False,7:30 AM,8:30 AM,11:00 AM,12:00 PM,,,"San Angelo Independent School District, TX, USA",31.4179771,-100.5746224,San Angelo Independent School District,143d93bf24ada0c22c0d0258086cddc97f943b37
San Antonio ISD,https://www.saisd.net/page/article/227,Details: For more information contact Child Nutrition at,False," Brackenridge, Burbank, Edistion, Fox Tech, Highlands, Sam Houston, Jefferson, Lanier. Middle Schools",2020-03-09,2020-03-23,False,True,True,False,True,False,False,False,8:00 AM,9:00 AM,11:30 AM,12:30 PM,,,"San Antonio Independent School District, TX, USA",29.4040686,-98.46229869999999,San Antonio Independent School District,af1cebdb3abebe3e069c4bb56fd9ba35aed4775d
San Elizario ISD,https://www.seisd.net/departments/health_services/coronavirus,,False,,2020-03-23,2020-04-03,False,False,False,False,False,False,False,False,,,,,,,"San Elizario Independent School District, TX, USA",31.57117,-106.2463305,San Elizario Independent School District,31cca43465f41294d35e2a3d5e8da466746a5aa3
San Marcos CISD,,Details: Anyone,False," Travis Elementary, San Marcos HS and Redwood Baptist Church",2020-03-16,2020-04-05,False,True,True,False,False,True,False,False,8:00 AM,9:30 AM,11:30 AM,1:00 PM,,,"San Marcos Consolidated Independent School District, TX, USA",29.8509345,-97.9374948,San Marcos Consolidated Independent School District,b7a19c4bb68c6c56161a5cdfeb0836ae57694ee3
Santa Anna ISD,https://www.santaannaisd.net,,False,,2020-03-16,2020-03-20,False,False,False,False,False,False,False,False,,,,,,,"701 Bowie Ave, Santa Anna, TX 76878, United States",31.7373173,-99.322763,SANTA ANNA INDEPENDENT SCHOOL DISTRICT,7c0957c80d97b4a894c6b5e08d64686ca4cdb1b9
Santa Fe ISD,https://tx02215329.schoolwires.net/Page/3867,Details:,False,Barnett Elementary,2020-03-16,2020-04-10,False,True,True,False,True,False,False,False,10:30 AM,12:00 PM,,,,,"Santa Fe Independent School District, TX, USA",29.389428,-95.1223608,Santa Fe Independent School District,2681399547e5df89a0e9ba7df3bbf0c0c27b15f1
Savoy ISD,https://www.savoyisd.org/,Details: Drive thru and pick up in front of the elementary school,False,Elementary School,2020-03-16,2020-04-03,False,False,True,False,True,False,False,False,11:00 AM,1:00 PM,,,,,"Savoy Independent School District, TX, USA",33.6116875,-96.3438785,Savoy Independent School District,5c2bfd6ad9b96994531ec7ddef889755cf2b98ea
Schertz-Cibolo-Universal City ISD,https://www.scuc.txed.net/site/Default.aspx?PageID=32581,,False," SCUC ISD will continue its curbside meals for students at no cost. Remember, the eligible student or students must be present in the vehicle for the meal to be distributed to conform to Texas Department of Agriculture regulations.",2020-03-17,2020-04-03,False,True,True,False,True,False,False,False,7:30 AM,8:30 AM,11:30 AM,1:00 PM,,,"Schertz-Cibolo-Universal City Independent School District, TX, USA",29.5452443,-98.2322355,Schertz-Cibolo-Universal City Independent School District,a6933a598c81608f58292425fb45aa9836d72112
Schleicher Co. ISD,https://www.scisdnet,,False,,2020-03-16,2020-03-17,False,False,False,False,False,False,False,False,,,,,,,"205 W Fields Ave, Eldorado, TX 76936, United States",30.8635882,-100.5998244,Schleicher County ISD,448372d8203522e9914affe0cc24ed2746c7ee42
Sealy ISD,https://www.sealyisd.com/c_o_v_i_d-19_coronavirus,Details:  Enter through the drive-thru only original entrance,False,Selman Elementary,2020-03-16,2020-04-10,False,False,True,False,True,False,False,False,10:00 AM,12:00 PM,,,,,"Sealy Independent School District, TX, USA",29.7608337,-96.17391160000001,Sealy Independent School District,d8663bf85e2c4fe3753c1a43196c46fbb90939d7
Sheldon ISD,https://www.sheldonisd.com/,Details:  Students MUST be present when walking or driving up in order to receive their meals for accountin purposes,False,"Carroll Elementary, Royalwood Elementary, Sheldon Elementary, Null Middle School, and C. E. King Middle School",2020-03-16,2020-04-10,False,True,True,False,True,False,False,False,7:00 AM,9:00 AM,11:00 AM,1:00 PM,,,"Sheldon Independent School District, TX, USA",29.8613555,-95.1744903,Sheldon Independent School District,1fdb036bef130464673a7ac77ea1605a1e87bf7d
Shepherd ISD,https://www.shepherdisd.net/apps/pages/index.jsp?uREC_ID=1693162&type=d&pREC_ID=1856571,Details:  Children,False,Shepherd High School Cafeteria via the door on the side of the High School facing the ball fields.,2020-03-16,2020-04-10,False,True,True,False,True,False,False,False,7:30 AM,9:30 AM,11:30 AM,1:30 PM,,,"Shepherd Independent School District, TX, USA",30.477683,-95.01824599999999,Shepherd Independent School District,028f931710e9e1f9591934384be218cc1d8ecb23
Sherman ISD,https://www.shermanisd.net/covid19,Details: Although COVID-,False,"Piner Middle School, Neblett Elementary",2020-03-16,2020-04-03,False,True,True,False,True,False,False,False,8:00 AM,10:00 AM,12:00 PM,2:00 PM,,,"Sherman Independent School District, TX, USA",33.642875,-96.59969629999999,Sherman Independent School District,a35e21fb832253d1fb81ce625a76c1c00d03d689
Smithville ISD,https://www.smithvilleisd.org/apps/pages/index.jsp?uREC_ID=186536&type=d&pREC_ID=1844358,,False,,2020-03-16,2020-04-05,False,False,False,False,False,False,False,False,,,,,,,"Smithville Independent School District, TX, USA",30.0070679,-97.2221421,Smithville Independent School District,b8804448db5c41d6834d3b1c03575954b8ccedd7
Socorro ISD,https://www.sisd.net/Page/65749,Details:.,True,"All elementary, K",2020-03-22,2020-04-04,False,True,True,False,True,False,False,False,8:00 AM,9:00 AM,11:00 AM,1:00 PM,,,"Socorro Independent School District, TX, USA",31.7787463,-106.22868,Socorro Independent School District,f1cb736b9a397ff520b6c234c01a71c1d6ba5a56
South San ISD,,,False,,2020-03-09,2020-03-23,False,False,False,False,False,False,False,False,,,,,,,"South San Antonio Independent School District, San Antonio, TX, USA",29.3631755,-98.56111419999999,South San Antonio Independent School District,f0a5dab95fbd7dd9d1249ab17ab79b4d5225846c
Southwest ISD,http://www.swisd.net/cms/One.aspx?portalId=681437&pageId=14341974,Details: SWISD will be providing curbside meal service to students,False," Big Country ES, Bob Hope ES, Hidden Cove ES, Sky Harbour ES, Southwest ES.",2020-03-16,2020-03-20,False,True,True,False,True,False,False,False,7:00 AM,8:30 AM,11:00 AM,1:00 PM,,,"Southwest Independent School District, TX, USA",29.2977175,-98.68206359999999,Southwest Independent School District,17c53b0651fc263d1b86a5ac9aaefe846565a4c6
Spring Branch ISD,https://www.springbranchisd.com/,Details:  On Mondays,False,"Hollbrook Elementary, Tiger Trail PK Center, Bear Blvd PK Center, Lion Lane PK Center, Wildcat Way PK Center, Spring Forest Middle",2020-03-16,2020-04-10,False,True,True,False,False,True,False,False,8:00 AM,11:00 AM,,,,,"Spring Branch Independent School District, TX, USA",29.7888324,-95.5407299,Spring Branch Independent School District,59a1b0563e392f7480ec98004152315a169b36e5
Spring HIll ISD,https://www.shisd.net/apps/news/article/1167888,,False,,2020-03-16,2020-03-27,False,False,False,False,False,False,False,False,,,,,,,"Spring Hill Independent School District, Longview, TX, USA",32.5644134,-94.8054142,Spring Hill Independent School District,9499a0e04776494f136e415a174b1a5248781861
Spring ISD,,Details:  Children must be present to recieve the meal. Look for the drive-through area at the front of the school.,False,"Anderson, Bammel Elementary, Booker, Clark Primary, Claughton, Hoyland, Meyer, McNabb, Ponderosa, Reynolds, Smith",2020-03-16,2020-04-10,False,True,True,False,True,False,False,False,8:00 AM,11:00 AM,5:00 PM,7:00 PM,,,"Spring Independent School District, TX, USA",30.0118752,-95.4463322,Spring Independent School District,1437b36a2c4e3edd5e4613e78523351d960e3f09
Stafford MSD,https://www.staffordmsd.org/student-life/news/smsd-curb-side-meal-service,Details:  Children must be present to receive meals. Questions conact Child Nutrition at,False,Stafford Elementary School,2020-03-16,2020-04-10,False,True,True,True,True,False,False,False,8:00 AM,9:00 AM,10:30 AM,12:30 PM,3:00 PM,5:00 PM,"Stafford Municipal School District, TX, USA",29.6318415,-95.56697860000001,Stafford Municipal School District,ccac94e55b055f9ffe6bc184dc12b21589c2cb9e
Stockdale ISD,http://www.stockdaleisd.org/vnews/display.v/ART/5e6e2c0680eda,Details: We will be serving the meals at our Elementary Cafeteria as a grab and go through the parent pick-up line.,False, Elementary Cafeteria,2020-03-16,2020-03-20,False,True,True,False,True,False,False,False,7:30 AM,8:30 AM,11:30 AM,1:00 PM,,,"Stockdale Independent School District, TX, USA",29.2300189,-97.9157099,Stockdale Independent School District,90b18fb039cdf3a1676acfa5703b2e65faf3df00
Sulfrer Springs ISD,http://www.ssisd.net/,,False,,2020-03-16,2020-03-20,False,False,False,False,False,False,False,False,,,,,,,"1200 Connally St, Sulphur Springs, TX 75482, United States",33.1381221,-95.6193469,Sulphur Springs High School,11dac9b5897e3f985d9ef94afcb85b6760f8d797
Sulfur Bluff ISD,https://www.sulphurbluffisd.net/20193?articleID=50328,,False,,2020-03-16,2020-03-20,False,False,False,False,False,False,False,False,,,,,,,"1027 Co Rd 3550, Sulphur Bluff, TX 75481, United States",33.331108,-95.3939743,Sulphur Bluff Independent School District,1a04cbd52412242653b5dd2359fe9168250d45db
Sweeny ISD,https://www.facebook.com/SweenyISD/,,False,Curbside,2020-03-16,2020-04-10,False,False,False,False,True,False,False,False,11:30 AM,1:00 PM,11:30 AM,1:00 PM,,,"Sweeny Independent School District, TX, USA",28.95198,-95.62476699999999,Sweeny Independent School District,fd9c6829853d583de559bd1a0d04a6daf04bb687
Sweetwater ISD,http://www.sweetwaterisd.net,,False,,,,False,False,False,False,False,False,False,False,,,,,,,"Sweetwater Independent School District, TX, USA",32.519976,-100.3048897,Sweetwater Independent School District,1ca4a8bfe8e5e098e97004d8a938390b6fddeb35
Tarkington ISD,,,False,,2020-03-16,2020-03-20,False,False,False,False,False,False,False,False,,,,,,,"Tarkington Independent School District, TX, USA",30.2968883,-94.9350929,Tarkington Independent School District,3bf46ba9dc92105fcc2cc92a5c74a0690f8ad360
Tatum ISD,https://drive.google.com/file/d/1D88m5JVhTuX-xBZPilu5m_JaRqPoqaQW/view,,False,,2020-03-16,2020-03-20,False,False,False,False,False,False,False,False,,,,,,,"Tatum Independent School District, TX, USA",32.2958295,-94.58307889999999,Tatum Independent School District,ce1aa49a93543c17ad430b059c907f964c99ddc3
Taylor ISD,https://www.taylorisd.org/apps/news/article/1185776,Details: Bagged meals will be provided free of charge for all children,True, Main Street Event Center,2020-03-16,2020-03-20,False,True,True,False,True,False,False,False,7:30 AM,8:30 AM,11:00 AM,12:30 PM,,,"Taylor Independent School District, TX, USA",30.5697582,-97.4165053,Taylor Independent School District,a849c6ec02e003ef45fc903f28ba9bab158e430d
Teague ISD,,,False,,2020-03-23,2020-04-03,False,False,False,False,True,False,False,False,10:45 AM,12:00 PM,,,,,"Teague Independent School District, TX, USA",31.6109871,-96.2800864,Teague Independent School District,bddcfc42a4396269913fe83bf0d1e8a5da7fb30b
Temple ISD,,,False,,2020-03-16,2020-03-20,False,False,False,False,False,False,False,False,,,,,,,"Temple Independent School District, TX, USA",31.0772657,-97.33005299999999,Temple Independent School District,22a872fdcf779e00c99f0ec989ae4f7c1b4ad2fe
Texas City ISD,https://www.tcisd.org/departments/health-services/coronavirus-2020,,False,,2020-03-16,2020-04-10,False,True,True,False,True,False,False,False,,,,,,,"Texas City Independent School District, Texas City, TX, USA",29.3860397,-94.90394239999999,Texas City Independent School District,d02e07d169c2cc79b9d6d416dfbc31151281f137
Texas Serenity Academy School,,,False,,2020-03-16,2020-04-10,False,False,False,False,False,False,False,False,,,,,,,"8500 Sweetwater Ln, Houston, TX 77037, United States",29.8851016,-95.40761210000001,Texas Serenity Academy,06da53dc90afcab690ac133a21fd1819eca274b6
Texas Serenity Academy School,,,False,,2020-03-16,2020-04-10,False,False,False,False,False,False,False,False,,,,,,,"262 N Sam Houston Pkwy E, Houston, TX 77060, United States",29.9397403,-95.4024898,Texas Serenity Academy,a30ae52ea8405b3dd4bf41dfaa50a30fc838068e
Thrall ISD,https://www.thrallisd.com/apps/news/article/1185663,Details: TISD Staff and Volunteers will hand these meals to you in your vehicle,False, Enter off College Street,2020-03-16,2020-03-20,False,True,True,False,True,False,False,False,7:30 AM,8:30 AM,11:00 AM,12:30 PM,,,"Thrall Independent School District, TX, USA",30.6445305,-97.3084571,Thrall Independent School District,97192a7cc3106a0111db788ded8c910977421daf
Throckmorton Collegiate ,https://www.throck.org/,Details: Meals will be picked up curbside in the alley. Parents and students are to remain in the car. Please enter off College St and exit behind the football field,False, Enter off College Street,2020-03-16,2020-03-20,False,True,True,False,True,False,False,False,8:00 AM,,,,,,"210 College St, Throckmorton, TX 76483, United States",33.1829627,-99.18004900000001,Throckmorton Elementary School,9c6b0d7f4f9206ee48f02cc879dc340fcb8fcd74
Tioga ISD,https://www.tiogaisd.net/vnews/display.v/ART/5e6ffc8d137bc?fbclid=IwAR1jitJkO6tkCml9fPsA90pQazo5BdyxHrChZoZO24eVvDqmCodfm8tISbQ,Details:If you are interested or in need of receiving meals for your students,False,High School,2020-03-16,2020-04-03,False,False,False,False,True,False,False,False,5:00 PM,6:00 PM,5:00 PM,6:00 PM,,,"405 N Florence St, Tioga, TX 76271, United States",33.4712785,-96.9133667,Tioga School,933cb058888e8c17f9ec1eedbc39d165f311c04b
Tomball ISD,https://www.tomballisd.net/apps/pages/index.jsp?uREC_ID=307639&type=d&pREC_ID=1843043,Details:,False,Tomball High School,2020-03-16,2020-04-10,False,False,False,False,True,False,False,False,8:00 AM,11:00 AM,,,,,"Tomball Independent School District, TX, USA",30.1062407,-95.6668306,Tomball Independent School District,b81ac191042dcae88a70346869632e4c0be0387c
Tornillo ISD,https://www.tisd.us/,,False,,2020-03-23,2020-04-04,False,False,False,False,False,False,True,False,,,,,,,"Tornillo Independent School District, TX, USA",31.4476565,-106.040506,Tornillo Independent School District,fb51cc6ed9408ca2e3fa7057ef737ccaae989aaa
Trenton ISD,https://ly.trentonisd.org/grab-lunch,Details:TISD Food Services will be offering a grab and go breakfast and lunch starting on Tuesday,False,Elementary School,2020-03-16,2020-04-03,False,True,True,False,True,False,False,False,12:00 PM,1:00 PM,,,,,"Trenton Independent School District, TX, USA",33.4225616,-96.333242,Trenton Independent School District,b281a160b92c759c82c3b5aa925ace68aa78b8a9
Trinity ISD,,Details: Meals will be delivered to each car by an administrative staff member,False, Lansberry Elementary Bus Entrance,2020-03-16,2020-03-20,False,False,False,False,True,False,False,False,10:30 AM,12:30 PM,,,,,"Trinity Independent School District, TX, USA",30.9450561,-95.37301760000001,Trinity Independent School District,67dd59af8990479e0c78c082100cb33feffaac56
Troup ISD,https://www.troupisd.org/apps/news/article/1184357,Details: The district will provide a pick-up lunch for ALL students free of charge.  This is a pick-up lunch only,False, Elementary Campus,2020-03-16,2020-03-20,False,False,True,False,False,True,False,False,11:00 AM,12:30 PM,,,,,"Troup Independent School District, TX, USA",32.0940161,-95.1223608,Troup Independent School District,801de91526a71a84c45fc800f3a32003faa33854
Troy ISD,,,False,,,,False,False,False,False,False,False,False,False,,,,,,,"Troy Independent School District, TX, USA",31.1708805,-97.286868,Troy Independent School District,4b48c6f0475883311e59f4f81230f04d433d434e
Tyler ISD,https://www.tylerisd.org/Page/33112,Details: As part of Tyler ISD,False," Boulter Middle School, Caldwell Arts Academy, Griffin Elementary School, Hubbard, Moore, and Three Lakes Middle Schools",2020-03-16,2020-03-20,False,False,False,False,True,False,False,False,11:00 AM,1:00 PM,,,,,"Tyler Independent School District, TX, USA",32.288266,-95.35208759999999,Tyler Independent School District,a34b70fd05d368f60db9bbb7a68971a0a19b0309
Union Grove ISD,https://www.ugisd.org/,,False,,2020-03-16,2020-03-27,False,False,False,False,False,False,False,False,,,,,,,"Union Grove Independent School District, TX, USA",32.5880121,-94.9247074,Union Grove Independent School District,ecd5f8f66716e012a53bfd50ce3af9070f63050e
Union Hill ISD,,,False,,2020-03-16,2020-03-20,False,False,False,False,False,False,False,False,,,,,,,"Union Hill Independent School District, TX, USA",32.8217496,-94.99744609999999,Union Hill Independent School District,7eee2648211d15a598f974a92e76a362dc6c280c
Utopia ISD,https://www.utopiaisd.net/article/209763?org=utopia-isd,,False,,2020-03-16,2020-03-20,False,False,False,False,False,False,False,False,,,,,,,"258 School St, Utopia, TX 78884, United States",29.6192231,-99.52854549999999,Utopia School,c1bd916b01d46b0479b8efc2a46faf26c48b55c6
Uvalde ISD,https://www.ucisd.net/,Details: We will continue to offer meals for our students. Meal packs will include breakfast and lunch meals for five days. Parents are encouraged to pick up meal packs on Tuesday,False," Uvalde High School, Robb Elementary and Batesville Elementary",2020-03-17,2020-03-20,False,False,False,False,False,True,False,False,7:00 AM,2:00 PM,7:00 am,2:00 pm,,,"Uvalde Consolidated Independent School District, TX, USA",29.3342663,-99.8124935,Uvalde Consolidated Independent School District,87098241e1b9061e97de6ab807a694aa05a575d0
Valley Mills ISD,https://www.facebook.com/theVME/photos/a.645536562249109/1808127029323384/?type=3&theater,Details: With Valley Mills ISD schools closed March,False, Elementary School,2020-03-16,2020-03-20,False,True,True,False,True,False,False,False,11:00 AM,12:00 PM,,,,,"Valley Mills Independent School District, TX, USA",31.6584986,-97.5030669,Valley Mills Independent School District,6d5c02c29ccf81c6a526b67946507e84998e300e
Van ISD,https://www.vanisd.org/site/default.aspx?PageType=3&DomainID=4&ModuleInstanceID=62&ViewID=6446EE88-D30C-497E-9316-3F8874B3E108&RenderLoc=0&FlexDataID=5313&PageID=1,Details: District will be providing curbside pickup meals for children ages,False, J.E. Rhodes Elementary morning dropoff zone for PK,2020-03-17,2020-03-20,False,False,True,True,True,False,False,False,11:00 AM,1:00 PM,5:30 PM,7:00 PM,,,"Van Independent School District, TX, USA",32.4778507,-95.6668306,Van Independent School District,87c395802509349589f310b3ac46c0a53f096f1a
Van Alstyne ISD,https://www.facebook.com/vanalstyneindependentschooldistrict/?__tn__=kC-R&eid=ARCWQeQzuufXUKOlLVG8q8Heu7c-Sj1ONFmCEcWvbxnmlys2Nwgx-0c1PUoRUOP4JIqOZuz49c5QqPw9&hc_ref=ARQpsj1IEDa8hriyougKwaZXFkaR2O3Ws2pde3YRveQbJTQjk0wyl3VLrBzqhgivUj8&fref=nf&__xts__[0]=68.ARAlH_5PZsog6w8GSRe2Xls6S2cfb1CvovySwKXRijf5SEsFbVQ-gAxwh-KaAIY10gm5Ztjzdk9r_LivvA8xRvaCNxz699hSCHueqqc1eFhpiAxASTNtlUzjkvCotCHNu3RZSuE6b4L2Xg19YlyDXVTLK_kAsNJEDQBx03faXH8Q6zm5MCGNKKMaQ2ba0hP2EaJewCc7y-jZz1QwXqjrFGEwhRpG57aLoFVViXzGn-JSW6LO5K-vGemll5bzfC7Eua9bs9zcri7QJISQZxMQdKtO-IB-7G1z3-2XRE4qugvvHWLMDNsWnT3XoEIAFfZOdVeJ4l9w2yrbbwsdyTpfRchHVg,Details:  The district is offering a free grab and go breakfast each day next week from,False,Sanford Elementary,2020-03-23,2020-04-03,False,True,False,False,True,False,False,False,6:30 AM,8:30 AM,,,,,"Van Alstyne Independent School District, TX, USA",33.4221084,-96.55698819999999,Van Alstyne Independent School District,ac2fe16011acb5303e68c44c35245453d6f4754d
Varnett Public School,,,False,,2020-03-13,2020-04-10,False,False,False,False,False,False,False,False,,,,,,,"5025 S Willow Dr, Houston, TX 77035, United States",29.656432,-95.46625999999999,The Varnett School Southwest,ef8a0659dd911e652efa4457375d80c5fb5adaac
Varnett Public School,,,False,,2020-03-13,2020-04-10,False,False,False,False,False,False,False,False,,,,,,,"5025 S Willow Dr, Houston, TX 77035, United States",29.639933,-95.497293,The Varnett public school,08bae4b3d544d4b5a4457d86a1c995725f92cba7
Varnett Public School,,,False,,2020-03-13,2020-04-10,False,False,False,False,False,False,False,False,,,,,,,"8305 Mesa Dr, Houston, TX 77028, United States",29.8370897,-95.2630734,The Varnett School - Northeast,67bb115cab5053297cb6d0cddf1a2af720fce31b
Varnett Public School,,,False,,2020-03-13,2020-04-10,False,False,False,False,False,False,False,False,,,,,,,"804 Maxey Rd, Houston, TX 77013, United States",29.7767097,-95.21957189999999,The Varnett School - East,6caf403f64e2852a8c2bad1057614def70d59224
Varnett Public School,,,False,,2020-03-13,2020-04-10,False,False,False,False,False,False,False,False,,,,,,,"Houston, TX 77251, United States",29.7,-95.53999999999999,Varnett Academy Inc,2ac7ea1242a953865ad77c6c8411e1a93836483c
Varnett Public School,,,False,,2020-03-13,2020-04-10,False,False,False,False,False,False,False,False,,,,,,,"11211 Clematis Ln, Houston, TX 77035, United States",29.6554336,-95.46725529999999,The Varnett Public School,99040fde791f28d42c98b8eda78c3e73622e4c4c
Veribest ISD,https://www.veribestisd.net,,False,,2020-03-16,2020-03-20,False,False,False,False,False,False,False,False,,,,,,,"Veribest Independent School District, TX, USA",31.5097045,-100.2824483,Veribest Independent School District,00ea609261ea23d5ef9b5a266f5448acd8dd4ff4
Waco ISD,https://www.wacoisd.org/COVID19?fbclid=IwAR3KUjSlxR-_cB8wDOejenKPCSBAcXsdlfTBgfzfKjMl4RBJ4L4GCmPtx9k#calendar16277/20200317/month,Details: Breakfasts and lunches for any child between,True, Bledsoe Miller Community Center,2020-03-13,2020-03-30,False,True,True,False,True,False,False,False,8:00 AM,9:30 AM,11:00 AM,12:30 PM,,,"Waco Independent School District, TX, USA",31.5421536,-97.1574784,Waco Independent School District,fb030a63de0d92a39980f15db038a9eb44faddda
Wall ISD,https://wallisd.net,,False,,2020-03-16,2020-03-27,False,False,False,False,False,False,False,False,,,,,,,"8065 Loop 570, Wall, TX 76957, United States",31.3734826,-100.3073927,Wall Elementary School,2e424706478da55019fd0b1d4c3e8d96cf7e8558
Waller ISD,https://www.wallerisd.net/site/default.aspx?PageType=3&DomainID=8&ModuleInstanceID=1215&ViewID=6446EE88-D30C-497E-9316-3F8874B3E108&RenderLoc=0&FlexDataID=11377&PageID=9,Details:  Do not exit your vehicle,False,"Holleman Elementary, Fields Store Elementary, and Roberts Road Elementary",2020-03-16,2020-04-10,False,True,True,False,True,False,False,False,11:00 AM,1:00 PM,,,,,"Waller Independent School District, TX, USA",30.0749136,-95.8564864,Waller Independent School District,8c6f0967b8d3291c60e65161d89a53c710c6b1c1
Waskom ISD,https://www.waskomisd.net/event_view?event_id=697164&pgIDref=34332,Details: Waskom ISD will be providing sack lunch pick-up at the Waskom Elementary,False,Waskom Elementary,2020-03-16,2020-03-20,False,False,True,False,True,False,False,False,11:00 AM,1:00 PM,,,,,"Waskom, TX 75692, United States",32.4775439,-94.06166979999999,Waskom Independent School District,40e255578d517fe1f32afcbf2dbf399bc2cc8ec0
Water Valley ISD,https://www.wvisd.net,,False,Where:,2020-03-16,2020-03-20,False,False,False,False,False,True,False,False,8:00 AM,10:00 AM,,,,,"Water Valley Independent School District, TX, USA",31.6736541,-100.7548851,Water Valley Independent School District,e782ef7c062cffc2e3d5f949c4385c66319126fe
Wells ISD,https://www.wells.esc7.net/,,False,,2020-03-16,2020-03-20,False,False,False,False,False,False,False,False,,,,,,,"160 Rusk Ave, Wells, TX 75976, United States",31.4881897,-94.93827929999999,Wells High & Elementary School,13d0e868a8c46206a83a31d8578f9631efcbc1cb
West Rusk,http://www.westrusk.esc7.net/,,False,,2020-03-16,2020-03-20,False,False,False,False,False,False,False,False,,,,,,,"West Rusk Independent School District, TX, USA",32.1928594,-94.9143239,West Rusk Independent School District,0a3b4c036f829a984df0a32f4900cc4e1cbcb28d
White Oak ISD,http://www.woisd.net/,Details:. WOISD will offer meals to ALL students in the district. Meals will be hand delivered to each vehicle. All school aged children will receive a meal.,False,HS,2020-03-16,2020-03-27,False,True,True,False,True,False,False,True,11:00 AM,12:00 PM,,,,,"White Oak Independent School District, TX, USA",32.5227251,-94.86243549999999,White Oak Independent School District,5ae5cc8b1b46c56d76dd00c93837519ae49054dc
Whitehouse ISD,,,False,,2020-03-16,2020-03-20,False,False,False,False,False,False,False,False,,,,,,,"Whitehouse Independent School District, TX, USA",32.224774,-95.2475518,Whitehouse Independent School District,8f6da4ae99e7822440398624b89e207279cce5c0
Whitesboro ISD,https://www.whitesboroisd.org/index.jsp,Details: Free lunches via curbside pickup,False,"Whitesboro Miiddle School, Sherwood Shores Baptisit Church",2020-03-16,2020-04-03,False,False,True,False,True,False,False,False,11:00 AM,,,,,,"Whitesboro Independent School District, TX, USA",33.7600494,-96.89944949999999,Whitesboro Independent School District,61f72c85d1bffd325dc4adcde0c449a0c175e608
Willis ISD,,,False,Meador Elementary,2020-03-16,2020-04-10,False,True,True,False,True,False,False,False,11:00 AM,,,,,,"Willis Independent School District, TX, USA",30.4574707,-95.51973939999999,Willis Independent School District,c7690353ff03bd506fc2d870f4f5f754d2b022ce
Winona ISD,http://www.winonaisd.org/,,False,,2020-03-16,2020-03-20,False,False,False,False,False,False,False,False,,,,,,,"605 Wildcat Dr, Winona, TX 75792, United States",32.494358,-95.18539899999999,Winona Independent School District,f690a8b82e2c6dafe017ae9cf2893db29c86a4dd
Winters ISD,http://www.wintersisd.org,Details:. You can drive by and pick it up or contact food services if you need food delivered.,False,Not Specified,2020-03-16,2020-03-18,False,True,True,False,False,True,False,True,8:00 AM,9:00 AM,11:00 AM,12:00 PM,,,"Winters Independent School District, TX, USA",32.0030314,-100.0359661,Winters Independent School District,e425765219d787891852ebc72467fa8c277ff3a6
Wooden ISD,https://www.wodenisd.org/,,False,,2020-03-16,2020-03-20,False,False,False,False,False,False,False,False,,,,,,,"200 Louise Ritter Dr, Red Oak, TX 75154, United States",32.5016633,-96.7954626,H A Wooden Elementary School,a21467fe50a5952811c328c04af341959de07ed1
Woodson ISD,http://www.woodsonisd.net/,,False,,2020-03-16,2020-03-20,False,False,False,False,False,False,False,False,,,,,,,"100 Cowboy Ln, Woodson, TX 76491, United States",33.0201715,-99.05214199999999,Woodson Independent Sch District,359081385dfc30af235d685515afcf5ff3b4b497
Wortham ISD,https://www.worthamisd.org/,,False,,2020-03-16,2020-03-20,False,False,False,False,False,False,False,False,,,,,,,"200 N 5th St, Wortham, TX 76693, United States",31.7897084,-96.4667946,Wortham Independent School District,6c81a266d4004a576f39c00f12023ba52b7529a0
Wylie ISD,,Details:. Due to program rules,False,Where:,2020-03-16,2020-03-20,False,False,True,False,True,False,False,False,,,,,,,"Wylie Independent School District, TX, USA",33.0193386,-96.55698819999999,Wylie Independent School District,088dd6b1f5a3134485f1680fa00af4d7fed7fe86
Yantis ISD,http://www.yantisisd.net/,,False,,2020-03-16,2020-03-20,False,False,False,False,False,False,False,False,,,,,,,"Yantis Independent School District, TX, USA",32.9319715,-95.5827334,Yantis Independent School District,129968985332016c54cdb7c1e2081cbfa8e2a0c2
Yes Prep Charter,https://www.yesprep.org/covid19/meals,,False,Brays Oaks,2020-03-13,2020-04-10,False,True,True,False,True,False,False,False,10:00 AM,11:00 AM,,,,,"6565 De Moss Dr, Houston, TX 77074, United States",29.7067458,-95.49811799999999,YES Prep Gulfton,2c729fdc91783d3cef1c31c03308491d0f878fb5
Ysleta ISD,https://www.yisd.net/Page/8135,Details:.,False,"Bel Air Middle School, Del Valle Middle School, Parkland Middle School, Bel Air High School, Del Valle High School, Ysleta High School, Riverside High School, Hanks High School, Eastwood High School, Parkland High School, Constance Hulbert Elementary School, R.E.L. Washington Elementary School, Desertaire Elementary School, Capistrano Elementary",2020-03-23,2020-04-03,False,True,True,False,True,False,False,False,7:30 AM,8:30 AM,11:00 AM,12:30 PM,,,"Ysleta Independent School District, El Paso, TX, USA",31.7759806,-106.3346061,Ysleta Independent School District,107f9a8ec097f7c578a40fa91179902108efade5
Zephyr ISD,http://www.zephyrisd.net,,False,,2020-03-16,2020-03-20,False,False,False,False,False,False,False,False,,,,,,,"11625 Co Rd 281, Zephyr, TX 76890, United States",31.67629,-98.79445199999999,Zephyr Common School District,e5d82fa03ac9bee86c3b397023b21c1d5937d16a
